N,occurrenceID,family,scientificName,genus,species,subspecies,author,eventDate,state,individualCount,juvenileCount,adultCount,countMethod,decimalLatitude,decimalLongitude,locality,locationID,municipality,island,islandGroup,country,countryCode,recordedBy,basisOfRecord,disposition,etiket_ref,collectio (coll.),determinavit (det.),occurrenceRemarks,rankmarker,kingdom,taxon_id,dwc_language,dwc_license,dwc_rightsHolder
1,,Achatinidae,Rumina decollata,Rumina,decollata,,"(Linnaeus, 1758)",2020-02-02T00:00:00Z,empty shell,3,0,3,exact,27.88516045,-15.72273827,Mogán,,Mogán,Gran Canaria,Canary Islands,Spain,ES,Ward Langeraert,HumanObservation,Y,0,Ward Langeraert,Ward Langeraert,,sp.,animalia,checklist_snails_spain:taxon:247ffc08db380b078743b050eb6bf537,my_language,my_license,my_rights_holder
2,,Trissexodontidae,Caracollina lenticula,Caracollina,lenticula,,"(Michaud, 1831)",2020-02-02T00:00:00Z,empty shell,1,0,1,exact,27.88210105896,-15.722638130188,Barranco de Mogán eastern slope (E of Mogán),,Mogán,Gran Canaria,Canary Islands,Spain,ES,Ward Langeraert,HumanObservation,N,,Ward Langeraert,Ward Langeraert,,sp.,animalia,checklist_snails_spain:taxon:47273d8d7c32619368d1ace036f6d5e0,my_language,my_license,my_rights_holder
3,,Enidae,Napaeus venegueraensis,Napaeus,venegueraensis,,"Artiles, Santana & Deniz, 2011",2020-02-02T00:00:00Z,empty shell,1,0,1,exact,27.8820972442627,-15.7226572036743,Barranco de Mogán eastern slope (E of Mogán),,Mogán,Gran Canaria,Canary Islands,Spain,ES,Ward Langeraert,HumanObservation,Y,1,Ward Langeraert,Ward Langeraert,,sp.,animalia,checklist_snails_spain:taxon:cd16c84b5b614f180d850b0c02a3f8e7,my_language,my_license,my_rights_holder
4,,Geomitridae,Monilearia persimilis,Monilearia,persimilis,,"(Shuttleworth, 1852)",2020-02-02T00:00:00Z,empty shell,5,0,5,exact,27.88208199,-15.72263145,Barranco de Mogán eastern slope (E of Mogán),,Mogán,Gran Canaria,Canary Islands,Spain,ES,Ward Langeraert,HumanObservation,Y,1,Ward Langeraert,Ward Langeraert,difference M. praeposita?,sp.,animalia,checklist_snails_spain:taxon:47b55bbc28abb9e45b2979b33e5e5e9b,my_language,my_license,my_rights_holder
5,,Geomitridae,Xerotricha orbignii,Xerotricha,orbignii,,"(d'Orbigny, 1836)",2020-02-02T00:00:00Z,empty shell,2,2,0,exact,27.88204002,-15.72261715,Barranco de Mogán eastern slope (E of Mogán),,Mogán,Gran Canaria,Canary Islands,Spain,ES,Ward Langeraert,HumanObservation,Y,1,Ward Langeraert,Ward Langeraert,X. aff. orbignii?,sp.,animalia,checklist_snails_spain:taxon:9cf5392aeb8974a621aea21248e4d249,my_language,my_license,my_rights_holder
6,,Enidae,Napaeus venegueraensis,Napaeus,venegueraensis,,"Artiles, Santana & Deniz, 2011",2020-02-02T00:00:00Z,empty shell,2,0,2,exact,27.88191414,-15.7225256,Barranco de Mogán eastern slope (E of Mogán),,Mogán,Gran Canaria,Canary Islands,Spain,ES,Ward Langeraert,HumanObservation,Y,2,Ward Langeraert,Ward Langeraert,,sp.,animalia,checklist_snails_spain:taxon:cd16c84b5b614f180d850b0c02a3f8e7,my_language,my_license,my_rights_holder
7,,Geomitridae,Monilearia persimilis,Monilearia,persimilis,,"(Shuttleworth, 1852)",2020-02-02T00:00:00Z,empty shell,6,1,5,exact,27.88191414,-15.72252655,Barranco de Mogán eastern slope (E of Mogán),,Mogán,Gran Canaria,Canary Islands,Spain,ES,Ward Langeraert,HumanObservation,Y,2,Ward Langeraert,Ward Langeraert,difference M. praeposita?,sp.,animalia,checklist_snails_spain:taxon:47b55bbc28abb9e45b2979b33e5e5e9b,my_language,my_license,my_rights_holder
8,,Geomitridae,Xerotricha orbignii,Xerotricha,orbignii,,"(d'Orbigny, 1836)",2020-02-02T00:00:00Z,empty shell,2,1,1,exact,27.88191032,-15.7225399,Barranco de Mogán eastern slope (E of Mogán),,Mogán,Gran Canaria,Canary Islands,Spain,ES,Ward Langeraert,HumanObservation,Y,2,Ward Langeraert,Ward Langeraert,X. aff. orbignii?,sp.,animalia,checklist_snails_spain:taxon:9cf5392aeb8974a621aea21248e4d249,my_language,my_license,my_rights_holder
9,,Helicidae,Hemicycla psathyra psathyra,Hemicycla,psathyra,psathyra,"(R.T. Lowe, 1861)",2020-02-02T00:00:00Z,empty shell,11,2,9,exact,27.8816928863525,-15.7226190567017,Barranco de Mogán eastern slope (E of Mogán),,Mogán,Gran Canaria,Canary Islands,Spain,ES,Ward Langeraert,HumanObservation,Y,2,Ward Langeraert,Ward Langeraert,,infrasp.,animalia,checklist_snails_spain:taxon:296437d6cc42080932a23d5fe86dc489,my_language,my_license,my_rights_holder
10,,Trissexodontidae,Caracollina lenticula,Caracollina,lenticula,,"(Michaud, 1831)",2020-02-02T00:00:00Z,empty shell,2,0,2,exact,27.8816375732422,-15.7226085662842,Barranco de Mogán eastern slope (E of Mogán),,Mogán,Gran Canaria,Canary Islands,Spain,ES,Ward Langeraert,HumanObservation,Y,2,Ward Langeraert,Ward Langeraert,,sp.,animalia,checklist_snails_spain:taxon:47273d8d7c32619368d1ace036f6d5e0,my_language,my_license,my_rights_holder
11,,Geomitridae,Xerotricha orbignii,Xerotricha,orbignii,,"(d'Orbigny, 1836)",2020-02-02T00:00:00Z,empty shell,2,1,1,exact,27.8815288543701,-15.7221879959106,Barranco de Mogán eastern slope (E of Mogán),,Mogán,Gran Canaria,Canary Islands,Spain,ES,Ward Langeraert,HumanObservation,Y,3,Ward Langeraert,Ward Langeraert,X. aff. orbignii?,sp.,animalia,checklist_snails_spain:taxon:9cf5392aeb8974a621aea21248e4d249,my_language,my_license,my_rights_holder
12,,Geomitridae,Monilearia persimilis,Monilearia,persimilis,,"(Shuttleworth, 1852)",2020-02-02T00:00:00Z,empty shell,5,0,5,exact,27.88153458,-15.72218418,Barranco de Mogán eastern slope (E of Mogán),,Mogán,Gran Canaria,Canary Islands,Spain,ES,Ward Langeraert,HumanObservation,Y,3,Ward Langeraert,Ward Langeraert,difference M. praeposita?,sp.,animalia,checklist_snails_spain:taxon:47b55bbc28abb9e45b2979b33e5e5e9b,my_language,my_license,my_rights_holder
13,,Enidae,Napaeus josei,Napaeus,josei,,"Santana, Alonso & Ibáñez, 2011",2020-02-02T00:00:00Z,empty shell,3,1,2,exact,27.88145065,-15.72210503,Barranco de Mogán eastern slope (E of Mogán),,Mogán,Gran Canaria,Canary Islands,Spain,ES,Ward Langeraert,HumanObservation,Y,3,Ward Langeraert,Ward Langeraert,,sp.,animalia,checklist_snails_spain:taxon:818875f00d346deedc2adcb0969b3dbf,my_language,my_license,my_rights_holder
14,,Helicidae,Hemicycla psathyra psathyra,Hemicycla,psathyra,psathyra,"(R.T. Lowe, 1861)",2020-02-02T00:00:00Z,empty shell,40,,,estimate,27.8813209533691,-15.7219648361206,Barranco de Mogán eastern slope (E of Mogán),,Mogán,Gran Canaria,Canary Islands,Spain,ES,Ward Langeraert,HumanObservation,Y,3,Ward Langeraert,Ward Langeraert,,infrasp.,animalia,checklist_snails_spain:taxon:296437d6cc42080932a23d5fe86dc489,my_language,my_license,my_rights_holder
15,,Helicidae,Hemicycla saponacea,Hemicycla,saponacea,,"(R.T. Lowe, 1861)",2020-02-02T00:00:00Z,empty shell,3,2,1,exact,27.88147736,-15.72189999,Barranco de Mogán eastern slope (E of Mogán),,Mogán,Gran Canaria,Canary Islands,Spain,ES,Ward Langeraert,HumanObservation,Y,3,Ward Langeraert,Ward Langeraert,to check,sp.,animalia,checklist_snails_spain:taxon:8719a9f4488198a9acc0ab227ca31830,my_language,my_license,my_rights_holder
16,,Helicidae,Otala lactea,Otala,lactea,,"(O.F. Müller, 1774)",2020-02-02T00:00:00Z,empty shell,1,0,1,exact,27.8815364837646,-15.7218370437622,Barranco de Mogán eastern slope (E of Mogán),,Mogán,Gran Canaria,Canary Islands,Spain,ES,Ward Langeraert,HumanObservation,Y,3,Ward Langeraert,Ward Langeraert,,sp.,animalia,checklist_snails_spain:taxon:efd436313771c5836b28fab2b9680036,my_language,my_license,my_rights_holder
17,,Trissexodontidae,Caracollina lenticula,Caracollina,lenticula,,"(Michaud, 1831)",2020-02-03T00:00:00Z,empty shell,10,,,estimate,27.8841075897217,-15.7247552871704,Mogán,,Mogán,Gran Canaria,Canary Islands,Spain,ES,Ward Langeraert,HumanObservation,Y,4,Ward Langeraert,Ward Langeraert,,sp.,animalia,checklist_snails_spain:taxon:47273d8d7c32619368d1ace036f6d5e0,my_language,my_license,my_rights_holder
18,,Helicidae,Hemicycla psathyra psathyra,Hemicycla,psathyra,psathyra,"(R.T. Lowe, 1861)",2020-02-03T00:00:00Z,empty shell,50,,,estimate,27.8841075897217,-15.7247552871704,Mogán,,Mogán,Gran Canaria,Canary Islands,Spain,ES,Ward Langeraert,HumanObservation,Y,4,Ward Langeraert,Ward Langeraert,,infrasp.,animalia,checklist_snails_spain:taxon:296437d6cc42080932a23d5fe86dc489,my_language,my_license,my_rights_holder
19,,Geomitridae,Monilearia persimilis,Monilearia,persimilis,,"(Shuttleworth, 1852)",2020-02-03T00:00:00Z,empty shell,1,0,1,exact,27.88410759,-15.72475719,Mogán,,Mogán,Gran Canaria,Canary Islands,Spain,ES,Ward Langeraert,HumanObservation,Y,4,Ward Langeraert,Ward Langeraert,difference M. praeposita?,sp.,animalia,checklist_snails_spain:taxon:47b55bbc28abb9e45b2979b33e5e5e9b,my_language,my_license,my_rights_holder
20,,Ferussaciidae,Ferussacia folliculum,Ferussacia,folliculum,,"(Schröter, 1784)",2020-02-03T00:00:00Z,empty shell,2,0,2,exact,27.8841075897217,-15.7247562408447,Mogán,,Mogán,Gran Canaria,Canary Islands,Spain,ES,Ward Langeraert,HumanObservation,Y,4,Ward Langeraert,Ward Langeraert,,sp.,animalia,checklist_snails_spain:taxon:9b52e5f048ea8bbabbb1e7495d31b2d1,my_language,my_license,my_rights_holder
21,,Helicidae,Hemicycla psathyra psathyra,Hemicycla,psathyra,psathyra,"(R.T. Lowe, 1861)",2020-02-03T00:00:00Z,empty shell,9,,,exact,27.8852806091309,-15.7251644134521,Barranco de Mogán western slope (W of Mogán),,Mogán,Gran Canaria,Canary Islands,Spain,ES,Ward Langeraert,HumanObservation,N,,Ward Langeraert,Ward Langeraert,,infrasp.,animalia,checklist_snails_spain:taxon:296437d6cc42080932a23d5fe86dc489,my_language,my_license,my_rights_holder
22,,Trissexodontidae,Caracollina lenticula,Caracollina,lenticula,,"(Michaud, 1831)",2020-02-03T00:00:00Z,empty shell,1,,,exact,27.8852825164795,-15.7254838943481,Barranco de Mogán western slope (W of Mogán),,Mogán,Gran Canaria,Canary Islands,Spain,ES,Ward Langeraert,HumanObservation,N,,Ward Langeraert,Ward Langeraert,,sp.,animalia,checklist_snails_spain:taxon:47273d8d7c32619368d1ace036f6d5e0,my_language,my_license,my_rights_holder
23,,Helicidae,Hemicycla psathyra psathyra,Hemicycla,psathyra,psathyra,"(R.T. Lowe, 1861)",2020-02-03T00:00:00Z,empty shell,1,,,exact,27.8859806060791,-15.7267074584961,Barranco de Mogán western slope (W of Mogán),,Mogán,Gran Canaria,Canary Islands,Spain,ES,Ward Langeraert,HumanObservation,N,,Ward Langeraert,Ward Langeraert,,infrasp.,animalia,checklist_snails_spain:taxon:296437d6cc42080932a23d5fe86dc489,my_language,my_license,my_rights_holder
24,,Geomitridae,Monilearia persimilis,Monilearia,persimilis,,"(Shuttleworth, 1852)",2020-02-03T00:00:00Z,empty shell,4,,,exact,27.88597488,-15.72673035,Barranco de Mogán western slope (W of Mogán),,Mogán,Gran Canaria,Canary Islands,Spain,ES,Ward Langeraert,HumanObservation,N,,Ward Langeraert,Ward Langeraert,difference M. praeposita?,sp.,animalia,checklist_snails_spain:taxon:47b55bbc28abb9e45b2979b33e5e5e9b,my_language,my_license,my_rights_holder
25,,Helicidae,Otala lactea,Otala,lactea,,"(O.F. Müller, 1774)",2020-02-03T00:00:00Z,empty shell,3,0,3,exact,27.8860206604004,-15.7268142700195,Barranco de Mogán western slope (W of Mogán),,Mogán,Gran Canaria,Canary Islands,Spain,ES,Ward Langeraert,HumanObservation,Y,5,Ward Langeraert,Ward Langeraert,,sp.,animalia,checklist_snails_spain:taxon:efd436313771c5836b28fab2b9680036,my_language,my_license,my_rights_holder
26,,Helicidae,Hemicycla psathyra psathyra,Hemicycla,psathyra,psathyra,"(R.T. Lowe, 1861)",2020-02-03T00:00:00Z,empty shell,10,,,exact,27.8862724304199,-15.7268962860107,Barranco de Mogán western slope (W of Mogán),,Mogán,Gran Canaria,Canary Islands,Spain,ES,Ward Langeraert,HumanObservation,N,,Ward Langeraert,Ward Langeraert,,infrasp.,animalia,checklist_snails_spain:taxon:296437d6cc42080932a23d5fe86dc489,my_language,my_license,my_rights_holder
27,,Trissexodontidae,Caracollina lenticula,Caracollina,lenticula,,"(Michaud, 1831)",2020-02-03T00:00:00Z,empty shell,10,,,exact,27.8862705230713,-15.7268953323364,Barranco de Mogán western slope (W of Mogán),,Mogán,Gran Canaria,Canary Islands,Spain,ES,Ward Langeraert,HumanObservation,N,,Ward Langeraert,Ward Langeraert,,sp.,animalia,checklist_snails_spain:taxon:47273d8d7c32619368d1ace036f6d5e0,my_language,my_license,my_rights_holder
28,,Helicidae,Hemicycla psathyra psathyra,Hemicycla,psathyra,psathyra,"(R.T. Lowe, 1861)",2020-02-03T00:00:00Z,empty shell,8,1,7,exact,27.8880653381348,-15.7282676696777,Barranco de Mogán western slope (W of Mogán),,Mogán,Gran Canaria,Canary Islands,Spain,ES,Ward Langeraert,HumanObservation,Y,5,Ward Langeraert,Ward Langeraert,,infrasp.,animalia,checklist_snails_spain:taxon:296437d6cc42080932a23d5fe86dc489,my_language,my_license,my_rights_holder
29,,Geomitridae,Monilearia persimilis,Monilearia,persimilis,,"(Shuttleworth, 1852)",2020-02-03T00:00:00Z,empty shell,15,,,estimate,27.88805008,-15.72824383,Barranco de Mogán western slope (W of Mogán),,Mogán,Gran Canaria,Canary Islands,Spain,ES,Ward Langeraert,HumanObservation,Y,5,Ward Langeraert,Ward Langeraert,difference M. praeposita?,sp.,animalia,checklist_snails_spain:taxon:47b55bbc28abb9e45b2979b33e5e5e9b,my_language,my_license,my_rights_holder
30,,Trissexodontidae,Caracollina lenticula,Caracollina,lenticula,,"(Michaud, 1831)",2020-02-03T00:00:00Z,empty shell,40,,,estimate,27.8886775970459,-15.7285137176514,Barranco de Mogán western slope (W of Mogán),,Mogán,Gran Canaria,Canary Islands,Spain,ES,Ward Langeraert,HumanObservation,Y,5,Ward Langeraert,Ward Langeraert,,sp.,animalia,checklist_snails_spain:taxon:47273d8d7c32619368d1ace036f6d5e0,my_language,my_license,my_rights_holder
31,,Geomitridae,Monilearia persimilis,Monilearia,persimilis,,"(Shuttleworth, 1852)",2020-02-03T00:00:00Z,empty shell,20,,,estimate,27.88955688,-15.72931767,Cruz de Mogán,,Mogán,Gran Canaria,Canary Islands,Spain,ES,Ward Langeraert,HumanObservation,Y,6,Ward Langeraert,Ward Langeraert,difference M. praeposita?,sp.,animalia,checklist_snails_spain:taxon:47b55bbc28abb9e45b2979b33e5e5e9b,my_language,my_license,my_rights_holder
32,,Trissexodontidae,Caracollina lenticula,Caracollina,lenticula,,"(Michaud, 1831)",2020-02-03T00:00:00Z,empty shell,3,0,3,exact,27.8895816802979,-15.7292776107788,Cruz de Mogán,,Mogán,Gran Canaria,Canary Islands,Spain,ES,Ward Langeraert,HumanObservation,Y,6,Ward Langeraert,Ward Langeraert,,sp.,animalia,checklist_snails_spain:taxon:47273d8d7c32619368d1ace036f6d5e0,my_language,my_license,my_rights_holder
33,,Geomitridae,Xerotricha orbignii,Xerotricha,orbignii,,"(d'Orbigny, 1836)",2020-02-03T00:00:00Z,empty shell,40,,,estimate,27.8893642425537,-15.7296104431152,Cruz de Mogán,,Mogán,Gran Canaria,Canary Islands,Spain,ES,Ward Langeraert,HumanObservation,Y,6,Ward Langeraert,Ward Langeraert,X. aff. orbignii?,sp.,animalia,checklist_snails_spain:taxon:9cf5392aeb8974a621aea21248e4d249,my_language,my_license,my_rights_holder
34,,Helicidae,Hemicycla saponacea,Hemicycla,saponacea,,"(R.T. Lowe, 1861)",2020-02-03T00:00:00Z,empty shell,2,1,1,exact,27.8893642425537,-15.7296104431152,Cruz de Mogán,,Mogán,Gran Canaria,Canary Islands,Spain,ES,Ward Langeraert,HumanObservation,Y,6,Ward Langeraert,Ward Langeraert,to check,sp.,animalia,checklist_snails_spain:taxon:8719a9f4488198a9acc0ab227ca31830,my_language,my_license,my_rights_holder
35,,Enidae,Napaeus josei,Napaeus,josei,,"Santana, Alonso & Ibáñez, 2011",2020-02-03T00:00:00Z,empty shell,15,,,estimate,27.88934517,-15.72954178,Cruz de Mogán,,Mogán,Gran Canaria,Canary Islands,Spain,ES,Ward Langeraert,HumanObservation,Y,6,Ward Langeraert,Ward Langeraert,,sp.,animalia,checklist_snails_spain:taxon:818875f00d346deedc2adcb0969b3dbf,my_language,my_license,my_rights_holder
36,,Helicidae,Hemicycla psathyra psathyra,Hemicycla,psathyra,psathyra,"(R.T. Lowe, 1861)",2020-02-03T00:00:00Z,empty shell,50,,,estimate,27.8893642425537,-15.7295227050781,Cruz de Mogán,,Mogán,Gran Canaria,Canary Islands,Spain,ES,Ward Langeraert,HumanObservation,Y,6,Ward Langeraert,Ward Langeraert,,infrasp.,animalia,checklist_snails_spain:taxon:296437d6cc42080932a23d5fe86dc489,my_language,my_license,my_rights_holder
37,,Geomitridae,Monilearia persimilis,Monilearia,persimilis,,"(Shuttleworth, 1852)",2020-02-03T00:00:00Z,alive,1,1,1,exact,27.88909149,-15.72960281,Cruz de Mogán,,Mogán,Gran Canaria,Canary Islands,Spain,ES,Ward Langeraert,HumanObservation,N,,Ward Langeraert,Ward Langeraert,difference M. praeposita?,sp.,animalia,checklist_snails_spain:taxon:47b55bbc28abb9e45b2979b33e5e5e9b,my_language,my_license,my_rights_holder
38,,Geomitridae,Monilearia persimilis,Monilearia,persimilis,,"(Shuttleworth, 1852)",2020-02-04T00:00:00Z,empty shell,20,,,estimate,27.8892498016357,-15.730094909668,Cruz de Mogán,,Mogán,Gran Canaria,Canary Islands,Spain,ES,Ward Langeraert,HumanObservation,Y,7,Ward Langeraert,Ward Langeraert,difference M. praeposita?,sp.,animalia,checklist_snails_spain:taxon:47b55bbc28abb9e45b2979b33e5e5e9b,my_language,my_license,my_rights_holder
39,,Helicidae,Hemicycla psathyra psathyra,Hemicycla,psathyra,psathyra,"(R.T. Lowe, 1861)",2020-02-04T00:00:00Z,empty shell,50,,,estimate,27.8892517089844,-15.7300939559937,Cruz de Mogán,,Mogán,Gran Canaria,Canary Islands,Spain,ES,Ward Langeraert,HumanObservation,Y,7,Ward Langeraert,Ward Langeraert,,infrasp.,animalia,checklist_snails_spain:taxon:296437d6cc42080932a23d5fe86dc489,my_language,my_license,my_rights_holder
40,,Geomitridae,Xerotricha orbignii,Xerotricha,orbignii,,"(d'Orbigny, 1836)",2020-02-04T00:00:00Z,empty shell,30,,,estimate,27.8892498016357,-15.730094909668,Cruz de Mogán,,Mogán,Gran Canaria,Canary Islands,Spain,ES,Ward Langeraert,HumanObservation,Y,7,Ward Langeraert,Ward Langeraert,X. aff. orbignii?,sp.,animalia,checklist_snails_spain:taxon:9cf5392aeb8974a621aea21248e4d249,my_language,my_license,my_rights_holder
41,,Enidae,Napaeus josei,Napaeus,josei,,"Santana, Alonso & Ibáñez, 2011",2020-02-04T00:00:00Z,empty shell,15,,,estimate,27.8892974853516,-15.7301454544067,Cruz de Mogán,,Mogán,Gran Canaria,Canary Islands,Spain,ES,Ward Langeraert,HumanObservation,Y,7,Ward Langeraert,Ward Langeraert,,sp.,animalia,checklist_snails_spain:taxon:818875f00d346deedc2adcb0969b3dbf,my_language,my_license,my_rights_holder
42,,Trissexodontidae,Caracollina lenticula,Caracollina,lenticula,,"(Michaud, 1831)",2020-02-04T00:00:00Z,empty shell,10,,,estimate,27.8892993927002,-15.7301454544067,Cruz de Mogán,,Mogán,Gran Canaria,Canary Islands,Spain,ES,Ward Langeraert,HumanObservation,N,,Ward Langeraert,Ward Langeraert,,sp.,animalia,checklist_snails_spain:taxon:47273d8d7c32619368d1ace036f6d5e0,my_language,my_license,my_rights_holder
43,,Helicidae,Hemicycla saponacea,Hemicycla,saponacea,,"(R.T. Lowe, 1861)",2020-02-04T00:00:00Z,empty shell,1,0,1,exact,27.8891983032227,-15.7314529418945,Cruz de Mogán,,Mogán,Gran Canaria,Canary Islands,Spain,ES,Ward Langeraert,HumanObservation,Y,,Ward Langeraert,Ward Langeraert,to check,sp.,animalia,checklist_snails_spain:taxon:8719a9f4488198a9acc0ab227ca31830,my_language,my_license,my_rights_holder
44,,Helicidae,Hemicycla saponacea,Hemicycla,saponacea,,"(R.T. Lowe, 1861)",2020-02-04T00:00:00Z,empty shell,1,0,1,exact,27.8894863128662,-15.7330684661865,Barranco de Veneguera southeastern slope (SW of Cruz de Mogán),,Mogán,Gran Canaria,Canary Islands,Spain,ES,Ward Langeraert,HumanObservation,Y,8,Ward Langeraert,Ward Langeraert,to check,sp.,animalia,checklist_snails_spain:taxon:8719a9f4488198a9acc0ab227ca31830,my_language,my_license,my_rights_holder
45,,Geomitridae,Monilearia persimilis,Monilearia,persimilis,,"(Shuttleworth, 1852)",2020-02-04T00:00:00Z,empty shell,10,,,estimate,27.8893508911133,-15.7327127456665,Barranco de Veneguera southeastern slope (SW of Cruz de Mogán),,Mogán,Gran Canaria,Canary Islands,Spain,ES,Ward Langeraert,HumanObservation,N,,Ward Langeraert,Ward Langeraert,difference M. praeposita?,sp.,animalia,checklist_snails_spain:taxon:47b55bbc28abb9e45b2979b33e5e5e9b,my_language,my_license,my_rights_holder
46,,Trissexodontidae,Caracollina lenticula,Caracollina,lenticula,,"(Michaud, 1831)",2020-02-04T00:00:00Z,empty shell,10,,,estimate,27.8893299102783,-15.7328081130981,Barranco de Veneguera southeastern slope (SW of Cruz de Mogán),,Mogán,Gran Canaria,Canary Islands,Spain,ES,Ward Langeraert,HumanObservation,N,,Ward Langeraert,Ward Langeraert,,sp.,animalia,checklist_snails_spain:taxon:47273d8d7c32619368d1ace036f6d5e0,my_language,my_license,my_rights_holder
47,,Helicidae,Hemicycla saponacea,Hemicycla,saponacea,,"(R.T. Lowe, 1861)",2020-02-04T00:00:00Z,empty shell,5,2,3,exact,27.888744354248,-15.7322607040405,Barranco de Veneguera southeastern slope (SW of Cruz de Mogán),,Mogán,Gran Canaria,Canary Islands,Spain,ES,Ward Langeraert,HumanObservation,Y,8,Ward Langeraert,Ward Langeraert,to check,sp.,animalia,checklist_snails_spain:taxon:8719a9f4488198a9acc0ab227ca31830,my_language,my_license,my_rights_holder
48,,Helicidae,Hemicycla psathyra psathyra,Hemicycla,psathyra,psathyra,"(R.T. Lowe, 1861)",2020-02-04T00:00:00Z,empty shell,1,,,exact,27.8885765075684,-15.7319068908691,Barranco de Veneguera southeastern slope (SW of Cruz de Mogán),,Mogán,Gran Canaria,Canary Islands,Spain,ES,Ward Langeraert,HumanObservation,N,,Ward Langeraert,Ward Langeraert,,infrasp.,animalia,checklist_snails_spain:taxon:296437d6cc42080932a23d5fe86dc489,my_language,my_license,my_rights_holder
49,,Helicidae,Hemicycla psathyra psathyra,Hemicycla,psathyra,psathyra,"(R.T. Lowe, 1861)",2020-02-04T00:00:00Z,empty shell,5,,,estimate,27.888126373291,-15.7312068939209,Barranco de Veneguera southeastern slope (SW of Cruz de Mogán),,Mogán,Gran Canaria,Canary Islands,Spain,ES,Ward Langeraert,HumanObservation,N,,Ward Langeraert,Ward Langeraert,,infrasp.,animalia,checklist_snails_spain:taxon:296437d6cc42080932a23d5fe86dc489,my_language,my_license,my_rights_holder
50,,Geomitridae,Monilearia persimilis,Monilearia,persimilis,,"(Shuttleworth, 1852)",2020-02-04T00:00:00Z,empty shell,10,,,estimate,27.8881378173828,-15.73122215271,Barranco de Veneguera southeastern slope (SW of Cruz de Mogán),,Mogán,Gran Canaria,Canary Islands,Spain,ES,Ward Langeraert,HumanObservation,N,,Ward Langeraert,Ward Langeraert,difference M. praeposita?,sp.,animalia,checklist_snails_spain:taxon:47b55bbc28abb9e45b2979b33e5e5e9b,my_language,my_license,my_rights_holder
51,,Trissexodontidae,Caracollina lenticula,Caracollina,lenticula,,"(Michaud, 1831)",2020-02-04T00:00:00Z,empty shell,10,,,estimate,27.8881301879883,-15.7311534881592,Barranco de Veneguera southeastern slope (SW of Cruz de Mogán),,Mogán,Gran Canaria,Canary Islands,Spain,ES,Ward Langeraert,HumanObservation,N,,Ward Langeraert,Ward Langeraert,,sp.,animalia,checklist_snails_spain:taxon:47273d8d7c32619368d1ace036f6d5e0,my_language,my_license,my_rights_holder
52,,Helicidae,Hemicycla saponacea,Hemicycla,saponacea,,"(R.T. Lowe, 1861)",2020-02-04T00:00:00Z,empty shell,2,,,exact,27.8880939483643,-15.7309274673462,Barranco de Veneguera southeastern slope (SW of Cruz de Mogán),,Mogán,Gran Canaria,Canary Islands,Spain,ES,Ward Langeraert,HumanObservation,Y,8,Ward Langeraert,Ward Langeraert,to check,sp.,animalia,checklist_snails_spain:taxon:8719a9f4488198a9acc0ab227ca31830,my_language,my_license,my_rights_holder
53,,Helicidae,Hemicycla psathyra psathyra,Hemicycla,psathyra,psathyra,"(R.T. Lowe, 1861)",2020-02-04T00:00:00Z,empty shell,40,,,estimate,27.888069152832,-15.731104850769,Barranco de Veneguera southeastern slope (SW of Cruz de Mogán),,Mogán,Gran Canaria,Canary Islands,Spain,ES,Ward Langeraert,HumanObservation,Y,9,Ward Langeraert,Ward Langeraert,,infrasp.,animalia,checklist_snails_spain:taxon:296437d6cc42080932a23d5fe86dc489,my_language,my_license,my_rights_holder
54,,Enidae,Napaeus josei,Napaeus,josei,,"Santana, Alonso & Ibáñez, 2011",2020-02-04T00:00:00Z,empty shell,6,2,4,exact,27.8879547119141,-15.7310762405396,Barranco de Veneguera southeastern slope (SW of Cruz de Mogán),,Mogán,Gran Canaria,Canary Islands,Spain,ES,Ward Langeraert,HumanObservation,Y,9,Ward Langeraert,Ward Langeraert,,sp.,animalia,checklist_snails_spain:taxon:818875f00d346deedc2adcb0969b3dbf,my_language,my_license,my_rights_holder
55,,Helicidae,Hemicycla saponacea,Hemicycla,saponacea,,"(R.T. Lowe, 1861)",2020-02-04T00:00:00Z,empty shell,28,4,24,exact,27.888069152832,-15.731104850769,Barranco de Veneguera southeastern slope (SW of Cruz de Mogán),,Mogán,Gran Canaria,Canary Islands,Spain,ES,Ward Langeraert,HumanObservation,Y,9,Ward Langeraert,Ward Langeraert,to check,sp.,animalia,checklist_snails_spain:taxon:8719a9f4488198a9acc0ab227ca31830,my_language,my_license,my_rights_holder
56,,Geomitridae,Monilearia persimilis,Monilearia,persimilis,,"(Shuttleworth, 1852)",2020-02-04T00:00:00Z,empty shell,10,,,estimate,27.8879585266113,-15.7310619354248,Barranco de Veneguera southeastern slope (SW of Cruz de Mogán),,Mogán,Gran Canaria,Canary Islands,Spain,ES,Ward Langeraert,HumanObservation,N,,Ward Langeraert,Ward Langeraert,difference M. praeposita?,sp.,animalia,checklist_snails_spain:taxon:47b55bbc28abb9e45b2979b33e5e5e9b,my_language,my_license,my_rights_holder
57,,Trissexodontidae,Caracollina lenticula,Caracollina,lenticula,,"(Michaud, 1831)",2020-02-04T00:00:00Z,empty shell,10,,,estimate,27.8879566192627,-15.731071472168,Barranco de Veneguera southeastern slope (SW of Cruz de Mogán),,Mogán,Gran Canaria,Canary Islands,Spain,ES,Ward Langeraert,HumanObservation,N,,Ward Langeraert,Ward Langeraert,,sp.,animalia,checklist_snails_spain:taxon:47273d8d7c32619368d1ace036f6d5e0,my_language,my_license,my_rights_holder
58,,Geomitridae,Xerotricha orbignii,Xerotricha,orbignii,,"(d'Orbigny, 1836)",2020-02-04T00:00:00Z,empty shell,5,2,3,exact,27.8878955841064,-15.7311639785767,Barranco de Veneguera southeastern slope (SW of Cruz de Mogán),,Mogán,Gran Canaria,Canary Islands,Spain,ES,Ward Langeraert,HumanObservation,Y,9,Ward Langeraert,Ward Langeraert,X. aff. orbignii?,sp.,animalia,checklist_snails_spain:taxon:9cf5392aeb8974a621aea21248e4d249,my_language,my_license,my_rights_holder
59,,Geomitridae,Monilearia persimilis,Monilearia,persimilis,,"(Shuttleworth, 1852)",2020-02-04T00:00:00Z,empty shell,2,,,exact,27.8892936706543,-15.7338581085205,Barranco de Veneguera southeastern slope (SW of Cruz de Mogán),,Mogán,Gran Canaria,Canary Islands,Spain,ES,Ward Langeraert,HumanObservation,N,,Ward Langeraert,Ward Langeraert,difference M. praeposita?,sp.,animalia,checklist_snails_spain:taxon:47b55bbc28abb9e45b2979b33e5e5e9b,my_language,my_license,my_rights_holder
60,,Helicidae,Hemicycla psathyra psathyra,Hemicycla,psathyra,psathyra,"(R.T. Lowe, 1861)",2020-02-04T00:00:00Z,empty shell,30,,,estimate,27.8892841339111,-15.733865737915,Barranco de Veneguera southeastern slope (SW of Cruz de Mogán),,Mogán,Gran Canaria,Canary Islands,Spain,ES,Ward Langeraert,HumanObservation,N,,Ward Langeraert,Ward Langeraert,,infrasp.,animalia,checklist_snails_spain:taxon:296437d6cc42080932a23d5fe86dc489,my_language,my_license,my_rights_holder
61,,Enidae,Napaeus josei,Napaeus,josei,,"Santana, Alonso & Ibáñez, 2011",2020-02-04T00:00:00Z,empty shell,6,,,exact,27.8892841339111,-15.733865737915,Barranco de Veneguera southeastern slope (SW of Cruz de Mogán),,Mogán,Gran Canaria,Canary Islands,Spain,ES,Ward Langeraert,HumanObservation,Y,10,Ward Langeraert,Ward Langeraert,,sp.,animalia,checklist_snails_spain:taxon:818875f00d346deedc2adcb0969b3dbf,my_language,my_license,my_rights_holder
62,,Geomitridae,Xerotricha orbignii,Xerotricha,orbignii,,"(d'Orbigny, 1836)",2020-02-04T00:00:00Z,empty shell,7,0,7,exact,27.8892707824707,-15.7338638305664,Barranco de Veneguera southeastern slope (SW of Cruz de Mogán),,Mogán,Gran Canaria,Canary Islands,Spain,ES,Ward Langeraert,HumanObservation,Y,10,Ward Langeraert,Ward Langeraert,X. aff. orbignii?,sp.,animalia,checklist_snails_spain:taxon:9cf5392aeb8974a621aea21248e4d249,my_language,my_license,my_rights_holder
63,,Helicidae,Hemicycla saponacea,Hemicycla,saponacea,,"(R.T. Lowe, 1861)",2020-02-04T00:00:00Z,empty shell,5,,,exact,27.8892822265625,-15.7338800430298,Barranco de Veneguera southeastern slope (SW of Cruz de Mogán),,Mogán,Gran Canaria,Canary Islands,Spain,ES,Ward Langeraert,HumanObservation,Y,10,Ward Langeraert,Ward Langeraert,to check,sp.,animalia,checklist_snails_spain:taxon:8719a9f4488198a9acc0ab227ca31830,my_language,my_license,my_rights_holder
64,,Trissexodontidae,Caracollina lenticula,Caracollina,lenticula,,"(Michaud, 1831)",2020-02-04T00:00:00Z,empty shell,1,,,exact,27.8892250061035,-15.7341423034668,Barranco de Veneguera southeastern slope (SW of Cruz de Mogán),,Mogán,Gran Canaria,Canary Islands,Spain,ES,Ward Langeraert,HumanObservation,N,,Ward Langeraert,Ward Langeraert,,sp.,animalia,checklist_snails_spain:taxon:47273d8d7c32619368d1ace036f6d5e0,my_language,my_license,my_rights_holder
65,,Helicidae,Otala lactea,Otala,lactea,,"(O.F. Müller, 1774)",2020-02-04T00:00:00Z,empty shell,2,,,exact,27.8885135650635,-15.7383489608765,Barranco de Veneguera southeastern slope (SW of Cruz de Mogán),,Mogán,Gran Canaria,Canary Islands,Spain,ES,Ward Langeraert,HumanObservation,N,,Ward Langeraert,Ward Langeraert,,sp.,animalia,checklist_snails_spain:taxon:efd436313771c5836b28fab2b9680036,my_language,my_license,my_rights_holder
66,,Geomitridae,Xerotricha orbignii,Xerotricha,orbignii,,"(d'Orbigny, 1836)",2020-02-04T00:00:00Z,empty shell,5,,,exact,27.8884048461914,-15.7393856048584,Barranco de Veneguera southeastern slope (SW of Cruz de Mogán),,Mogán,Gran Canaria,Canary Islands,Spain,ES,Ward Langeraert,HumanObservation,N,,Ward Langeraert,Ward Langeraert,X. aff. orbignii?,sp.,animalia,checklist_snails_spain:taxon:9cf5392aeb8974a621aea21248e4d249,my_language,my_license,my_rights_holder
67,,Trissexodontidae,Caracollina lenticula,Caracollina,lenticula,,"(Michaud, 1831)",2020-02-04T00:00:00Z,empty shell,5,,,estimate,27.8884010314941,-15.7394170761108,Barranco de Veneguera southeastern slope (SW of Cruz de Mogán),,Mogán,Gran Canaria,Canary Islands,Spain,ES,Ward Langeraert,HumanObservation,N,,Ward Langeraert,Ward Langeraert,,sp.,animalia,checklist_snails_spain:taxon:47273d8d7c32619368d1ace036f6d5e0,my_language,my_license,my_rights_holder
68,,Geomitridae,Monilearia persimilis,Monilearia,persimilis,,"(Shuttleworth, 1852)",2020-02-04T00:00:00Z,empty shell,15,,,estimate,27.8884162902832,-15.7393951416016,Barranco de Veneguera southeastern slope (SW of Cruz de Mogán),,Mogán,Gran Canaria,Canary Islands,Spain,ES,Ward Langeraert,HumanObservation,N,,Ward Langeraert,Ward Langeraert,difference M. praeposita?,sp.,animalia,checklist_snails_spain:taxon:47b55bbc28abb9e45b2979b33e5e5e9b,my_language,my_license,my_rights_holder
69,,Helicidae,Hemicycla saponacea,Hemicycla,saponacea,,"(R.T. Lowe, 1861)",2020-02-04T00:00:00Z,empty shell,10,,,estimate,27.8884029388428,-15.7393760681152,Barranco de Veneguera southeastern slope (SW of Cruz de Mogán),,Mogán,Gran Canaria,Canary Islands,Spain,ES,Ward Langeraert,HumanObservation,Y,10,Ward Langeraert,Ward Langeraert,to check,sp.,animalia,checklist_snails_spain:taxon:8719a9f4488198a9acc0ab227ca31830,my_language,my_license,my_rights_holder
70,,Helicidae,Hemicycla psathyra psathyra,Hemicycla,psathyra,psathyra,"(R.T. Lowe, 1861)",2020-02-04T00:00:00Z,empty shell,10,,,estimate,27.8884029388428,-15.7393770217896,Barranco de Veneguera southeastern slope (SW of Cruz de Mogán),,Mogán,Gran Canaria,Canary Islands,Spain,ES,Ward Langeraert,HumanObservation,N,,Ward Langeraert,Ward Langeraert,,infrasp.,animalia,checklist_snails_spain:taxon:296437d6cc42080932a23d5fe86dc489,my_language,my_license,my_rights_holder
71,,Enidae,Napaeus josei,Napaeus,josei,,"Santana, Alonso & Ibáñez, 2011",2020-02-04T00:00:00Z,empty shell,5,,,estimate,27.8884162902832,-15.7393951416016,Barranco de Veneguera southeastern slope (SW of Cruz de Mogán),,Mogán,Gran Canaria,Canary Islands,Spain,ES,Ward Langeraert,HumanObservation,Y,10,Ward Langeraert,Ward Langeraert,,sp.,animalia,checklist_snails_spain:taxon:818875f00d346deedc2adcb0969b3dbf,my_language,my_license,my_rights_holder
72,,Helicidae,Hemicycla psathyra psathyra,Hemicycla,psathyra,psathyra,"(R.T. Lowe, 1861)",2020-02-04T00:00:00Z,empty shell,4,0,4,exact,27.8888378143311,-15.7394351959229,Barranco de Veneguera southeastern slope (SW of Cruz de Mogán),,Mogán,Gran Canaria,Canary Islands,Spain,ES,Ward Langeraert,HumanObservation,Y,11,Ward Langeraert,Ward Langeraert,,infrasp.,animalia,checklist_snails_spain:taxon:296437d6cc42080932a23d5fe86dc489,my_language,my_license,my_rights_holder
73,,Helicidae,Hemicycla saponacea,Hemicycla,saponacea,,"(R.T. Lowe, 1861)",2020-02-04T00:00:00Z,empty shell,3,0,3,exact,27.8888339996338,-15.7394351959229,Barranco de Veneguera southeastern slope (SW of Cruz de Mogán),,Mogán,Gran Canaria,Canary Islands,Spain,ES,Ward Langeraert,HumanObservation,Y,11,Ward Langeraert,Ward Langeraert,to check,sp.,animalia,checklist_snails_spain:taxon:8719a9f4488198a9acc0ab227ca31830,my_language,my_license,my_rights_holder
74,,Helicidae,Otala lactea,Otala,lactea,,"(O.F. Müller, 1774)",2020-02-04T00:00:00Z,empty shell,2,,,exact,27.8883457183838,-15.7402477264404,Barranco de Veneguera southeastern slope (SW of Cruz de Mogán),,Mogán,Gran Canaria,Canary Islands,Spain,ES,Ward Langeraert,HumanObservation,N,,Ward Langeraert,Ward Langeraert,,sp.,animalia,checklist_snails_spain:taxon:efd436313771c5836b28fab2b9680036,my_language,my_license,my_rights_holder
75,,Enidae,Napaeus venegueraensis,Napaeus,venegueraensis,,"Artiles, Santana & Deniz, 2011",2020-02-04T00:00:00Z,empty shell,1,0,1,exact,27.8882541656494,-15.7410974502563,Barranco de Veneguera southeastern slope (SW of Cruz de Mogán),,Mogán,Gran Canaria,Canary Islands,Spain,ES,Ward Langeraert,HumanObservation,Y,11,Ward Langeraert,Ward Langeraert,,sp.,animalia,checklist_snails_spain:taxon:cd16c84b5b614f180d850b0c02a3f8e7,my_language,my_license,my_rights_holder
76,,Enidae,Napaeus josei,Napaeus,josei,,"Santana, Alonso & Ibáñez, 2011",2020-02-04T00:00:00Z,empty shell,1,0,1,exact,27.8882541656494,-15.7410974502563,Barranco de Veneguera southeastern slope (SW of Cruz de Mogán),,Mogán,Gran Canaria,Canary Islands,Spain,ES,Ward Langeraert,HumanObservation,Y,11,Ward Langeraert,Ward Langeraert,,sp.,animalia,checklist_snails_spain:taxon:818875f00d346deedc2adcb0969b3dbf,my_language,my_license,my_rights_holder
77,,Helicidae,Otala lactea,Otala,lactea,,"(O.F. Müller, 1774)",2020-02-04T00:00:00Z,empty shell,2,,,exact,27.8876876831055,-15.7429647445679,Barranco de Veneguera southeastern slope (SW of Cruz de Mogán),,Mogán,Gran Canaria,Canary Islands,Spain,ES,Ward Langeraert,HumanObservation,N,,Ward Langeraert,Ward Langeraert,,sp.,animalia,checklist_snails_spain:taxon:efd436313771c5836b28fab2b9680036,my_language,my_license,my_rights_holder
78,,Helicidae,Hemicycla psathyra psathyra,Hemicycla,psathyra,psathyra,"(R.T. Lowe, 1861)",2020-02-04T00:00:00Z,empty shell,1,,,exact,27.8876762390137,-15.7429599761963,Barranco de Veneguera southeastern slope (SW of Cruz de Mogán),,Mogán,Gran Canaria,Canary Islands,Spain,ES,Ward Langeraert,HumanObservation,N,,Ward Langeraert,Ward Langeraert,,infrasp.,animalia,checklist_snails_spain:taxon:296437d6cc42080932a23d5fe86dc489,my_language,my_license,my_rights_holder
79,,Geomitridae,Monilearia persimilis,Monilearia,persimilis,,"(Shuttleworth, 1852)",2020-02-04T00:00:00Z,empty shell,10,,,estimate,27.8875331878662,-15.743239402771,Barranco de Veneguera southeastern slope (SW of Cruz de Mogán),,Mogán,Gran Canaria,Canary Islands,Spain,ES,Ward Langeraert,HumanObservation,N,,Ward Langeraert,Ward Langeraert,difference M. praeposita?,sp.,animalia,checklist_snails_spain:taxon:47b55bbc28abb9e45b2979b33e5e5e9b,my_language,my_license,my_rights_holder
80,,Trissexodontidae,Caracollina lenticula,Caracollina,lenticula,,"(Michaud, 1831)",2020-02-04T00:00:00Z,empty shell,10,,,estimate,27.8875122070313,-15.7432498931885,Barranco de Veneguera southeastern slope (SW of Cruz de Mogán),,Mogán,Gran Canaria,Canary Islands,Spain,ES,Ward Langeraert,HumanObservation,N,,Ward Langeraert,Ward Langeraert,,sp.,animalia,checklist_snails_spain:taxon:47273d8d7c32619368d1ace036f6d5e0,my_language,my_license,my_rights_holder
81,,Geomitridae,Monilearia persimilis,Monilearia,persimilis,,"(Shuttleworth, 1852)",2020-02-04T00:00:00Z,empty shell,1,,,exact,27.8887920379639,-15.7430429458618,Barranco de Veneguera (W of Cruz de Mogán),,Mogán,Gran Canaria,Canary Islands,Spain,ES,Ward Langeraert,HumanObservation,N,,Ward Langeraert,Ward Langeraert,difference M. praeposita?,sp.,animalia,checklist_snails_spain:taxon:47b55bbc28abb9e45b2979b33e5e5e9b,my_language,my_license,my_rights_holder
82,,Trissexodontidae,Caracollina lenticula,Caracollina,lenticula,,"(Michaud, 1831)",2020-02-04T00:00:00Z,empty shell,1,,,exact,27.8888034820557,-15.7430791854858,Barranco de Veneguera (W of Cruz de Mogán),,Mogán,Gran Canaria,Canary Islands,Spain,ES,Ward Langeraert,HumanObservation,N,,Ward Langeraert,Ward Langeraert,,sp.,animalia,checklist_snails_spain:taxon:47273d8d7c32619368d1ace036f6d5e0,my_language,my_license,my_rights_holder
83,,Helicidae,Hemicycla psathyra psathyra,Hemicycla,psathyra,psathyra,"(R.T. Lowe, 1861)",2020-02-04T00:00:00Z,empty shell,1,,,exact,27.8887500762939,-15.7430324554443,Barranco de Veneguera (W of Cruz de Mogán),,Mogán,Gran Canaria,Canary Islands,Spain,ES,Ward Langeraert,HumanObservation,N,,Ward Langeraert,Ward Langeraert,,infrasp.,animalia,checklist_snails_spain:taxon:296437d6cc42080932a23d5fe86dc489,my_language,my_license,my_rights_holder
84,,Enidae,Napaeus venegueraensis,Napaeus,venegueraensis,,"Artiles, Santana & Deniz, 2011",2020-02-04T00:00:00Z,empty shell,1,0,1,exact,27.8909549713135,-15.740704536438,Barranco de Veneguera (W of Cruz de Mogán),,Mogán,Gran Canaria,Canary Islands,Spain,ES,Ward Langeraert,HumanObservation,Y,12,Ward Langeraert,Ward Langeraert,,sp.,animalia,checklist_snails_spain:taxon:cd16c84b5b614f180d850b0c02a3f8e7,my_language,my_license,my_rights_holder
85,,Helicidae,Otala lactea,Otala,lactea,,"(O.F. Müller, 1774)",2020-02-04T00:00:00Z,empty shell,1,,,exact,27.8910903930664,-15.7407751083374,Barranco de Veneguera (W of Cruz de Mogán),,Mogán,Gran Canaria,Canary Islands,Spain,ES,Ward Langeraert,HumanObservation,N,,Ward Langeraert,Ward Langeraert,,sp.,animalia,checklist_snails_spain:taxon:efd436313771c5836b28fab2b9680036,my_language,my_license,my_rights_holder
86,,Helicidae,Hemicycla psathyra psathyra,Hemicycla,psathyra,psathyra,"(R.T. Lowe, 1861)",2020-02-04T00:00:00Z,empty shell,1,,,exact,27.9004917144775,-15.7299499511719,Veneguera,,Mogán,Gran Canaria,Canary Islands,Spain,ES,Ward Langeraert,HumanObservation,N,,Ward Langeraert,Ward Langeraert,,infrasp.,animalia,checklist_snails_spain:taxon:296437d6cc42080932a23d5fe86dc489,my_language,my_license,my_rights_holder
87,,Helicidae,Otala lactea,Otala,lactea,,"(O.F. Müller, 1774)",2020-02-04T00:00:00Z,empty shell,1,,,exact,27.9030055999756,-15.7303419113159,Veneguera,,Mogán,Gran Canaria,Canary Islands,Spain,ES,Ward Langeraert,HumanObservation,N,,Ward Langeraert,Ward Langeraert,,sp.,animalia,checklist_snails_spain:taxon:efd436313771c5836b28fab2b9680036,my_language,my_license,my_rights_holder
88,,Helicidae,Otala lactea,Otala,lactea,,"(O.F. Müller, 1774)",2020-02-04T00:00:00Z,empty shell,1,,,exact,27.9048099517822,-15.7318277359009,Veneguera,,Mogán,Gran Canaria,Canary Islands,Spain,ES,Ward Langeraert,HumanObservation,N,,Ward Langeraert,Ward Langeraert,,sp.,animalia,checklist_snails_spain:taxon:efd436313771c5836b28fab2b9680036,my_language,my_license,my_rights_holder
89,,Achatinidae,Rumina decollata,Rumina,decollata,,"(Linnaeus, 1758)",2020-02-04T00:00:00Z,empty shell,2,,,exact,27.904806137085,-15.7318439483643,Veneguera,,Mogán,Gran Canaria,Canary Islands,Spain,ES,Ward Langeraert,HumanObservation,N,,Ward Langeraert,Ward Langeraert,,sp.,animalia,checklist_snails_spain:taxon:247ffc08db380b078743b050eb6bf537,my_language,my_license,my_rights_holder
90,,Helicidae,Hemicycla psathyra psathyra,Hemicycla,psathyra,psathyra,"(R.T. Lowe, 1861)",2020-02-04T00:00:00Z,empty shell,2,,,exact,27.906566619873,-15.7334957122803,Veneguera,,Mogán,Gran Canaria,Canary Islands,Spain,ES,Ward Langeraert,HumanObservation,N,,Ward Langeraert,Ward Langeraert,,infrasp.,animalia,checklist_snails_spain:taxon:296437d6cc42080932a23d5fe86dc489,my_language,my_license,my_rights_holder
91,,Geomitridae,Monilearia persimilis,Monilearia,persimilis,,"(Shuttleworth, 1852)",2020-02-04T00:00:00Z,empty shell,1,,,exact,27.908655166626,-15.7335605621338,Veneguera,,Mogán,Gran Canaria,Canary Islands,Spain,ES,Ward Langeraert,HumanObservation,N,,Ward Langeraert,Ward Langeraert,difference M. praeposita?,sp.,animalia,checklist_snails_spain:taxon:47b55bbc28abb9e45b2979b33e5e5e9b,my_language,my_license,my_rights_holder
92,,Helicidae,Hemicycla psathyra psathyra,Hemicycla,psathyra,psathyra,"(R.T. Lowe, 1861)",2020-02-04T00:00:00Z,empty shell,2,,,exact,27.9124298095703,-15.7352514266968,Veneguera,,Mogán,Gran Canaria,Canary Islands,Spain,ES,Ward Langeraert,HumanObservation,N,,Ward Langeraert,Ward Langeraert,,infrasp.,animalia,checklist_snails_spain:taxon:296437d6cc42080932a23d5fe86dc489,my_language,my_license,my_rights_holder
93,,Helicidae,Hemicycla psathyra psathyra,Hemicycla,psathyra,psathyra,"(R.T. Lowe, 1861)",2020-02-04T00:00:00Z,empty shell,1,,,exact,27.9139747619629,-15.7350063323975,Veneguera,,Mogán,Gran Canaria,Canary Islands,Spain,ES,Ward Langeraert,HumanObservation,N,,Ward Langeraert,Ward Langeraert,,infrasp.,animalia,checklist_snails_spain:taxon:296437d6cc42080932a23d5fe86dc489,my_language,my_license,my_rights_holder
94,,Helicidae,Hemicycla psathyra psathyra,Hemicycla,psathyra,psathyra,"(R.T. Lowe, 1861)",2020-02-04T00:00:00Z,alive,1,,,exact,27.901086807251,-15.7299633026123,Veneguera,,Mogán,Gran Canaria,Canary Islands,Spain,ES,Ward Langeraert,HumanObservation,N,,Ward Langeraert,Ward Langeraert,,infrasp.,animalia,checklist_snails_spain:taxon:296437d6cc42080932a23d5fe86dc489,my_language,my_license,my_rights_holder
95,,Helicidae,Hemicycla psathyra psathyra,Hemicycla,psathyra,psathyra,"(R.T. Lowe, 1861)",2020-02-04T00:00:00Z,empty shell,1,,,exact,27.900447845459,-15.7293500900269,Cruz de Mogán,,Mogán,Gran Canaria,Canary Islands,Spain,ES,Ward Langeraert,HumanObservation,N,,Ward Langeraert,Ward Langeraert,,infrasp.,animalia,checklist_snails_spain:taxon:296437d6cc42080932a23d5fe86dc489,my_language,my_license,my_rights_holder
96,,Trissexodontidae,Caracollina lenticula,Caracollina,lenticula,,"(Michaud, 1831)",2020-02-04T00:00:00Z,empty shell,2,,,exact,27.9004535675049,-15.7293548583984,Cruz de Mogán,,Mogán,Gran Canaria,Canary Islands,Spain,ES,Ward Langeraert,HumanObservation,N,,Ward Langeraert,Ward Langeraert,,sp.,animalia,checklist_snails_spain:taxon:47273d8d7c32619368d1ace036f6d5e0,my_language,my_license,my_rights_holder
97,,Trissexodontidae,Caracollina lenticula,Caracollina,lenticula,,"(Michaud, 1831)",2020-02-04T00:00:00Z,empty shell,10,,,estimate,27.8979606628418,-15.7297067642212,Cruz de Mogán,,Mogán,Gran Canaria,Canary Islands,Spain,ES,Ward Langeraert,HumanObservation,N,,Ward Langeraert,Ward Langeraert,,sp.,animalia,checklist_snails_spain:taxon:47273d8d7c32619368d1ace036f6d5e0,my_language,my_license,my_rights_holder
98,,Helicidae,Hemicycla psathyra psathyra,Hemicycla,psathyra,psathyra,"(R.T. Lowe, 1861)",2020-02-04T00:00:00Z,empty shell,10,,,estimate,27.8979549407959,-15.7296943664551,Cruz de Mogán,,Mogán,Gran Canaria,Canary Islands,Spain,ES,Ward Langeraert,HumanObservation,N,,Ward Langeraert,Ward Langeraert,,infrasp.,animalia,checklist_snails_spain:taxon:296437d6cc42080932a23d5fe86dc489,my_language,my_license,my_rights_holder
99,,Geomitridae,Monilearia persimilis,Monilearia,persimilis,,"(Shuttleworth, 1852)",2020-02-04T00:00:00Z,empty shell,1,,,exact,27.8979606628418,-15.7297039031982,Cruz de Mogán,,Mogán,Gran Canaria,Canary Islands,Spain,ES,Ward Langeraert,HumanObservation,N,,Ward Langeraert,Ward Langeraert,difference M. praeposita?,sp.,animalia,checklist_snails_spain:taxon:47b55bbc28abb9e45b2979b33e5e5e9b,my_language,my_license,my_rights_holder
100,,Helicidae,Hemicycla psathyra psathyra,Hemicycla,psathyra,psathyra,"(R.T. Lowe, 1861)",2020-02-04T00:00:00Z,empty shell,15,,,estimate,27.8948097229004,-15.7282562255859,Cruz de Mogán,,Mogán,Gran Canaria,Canary Islands,Spain,ES,Ward Langeraert,HumanObservation,N,,Ward Langeraert,Ward Langeraert,,infrasp.,animalia,checklist_snails_spain:taxon:296437d6cc42080932a23d5fe86dc489,my_language,my_license,my_rights_holder
101,,Trissexodontidae,Caracollina lenticula,Caracollina,lenticula,,"(Michaud, 1831)",2020-02-04T00:00:00Z,empty shell,3,,,exact,27.8948211669922,-15.7282571792603,Cruz de Mogán,,Mogán,Gran Canaria,Canary Islands,Spain,ES,Ward Langeraert,HumanObservation,N,,Ward Langeraert,Ward Langeraert,,sp.,animalia,checklist_snails_spain:taxon:47273d8d7c32619368d1ace036f6d5e0,my_language,my_license,my_rights_holder
102,,Geomitridae,Monilearia persimilis,Monilearia,persimilis,,"(Shuttleworth, 1852)",2020-02-04T00:00:00Z,empty shell,5,,,estimate,27.8941230773926,-15.7281703948975,Cruz de Mogán,,Mogán,Gran Canaria,Canary Islands,Spain,ES,Ward Langeraert,HumanObservation,N,,Ward Langeraert,Ward Langeraert,difference M. praeposita?,sp.,animalia,checklist_snails_spain:taxon:47b55bbc28abb9e45b2979b33e5e5e9b,my_language,my_license,my_rights_holder
103,,Enidae,Napaeus josei,Napaeus,josei,,"Santana, Alonso & Ibáñez, 2011",2020-02-04T00:00:00Z,empty shell,3,0,3,exact,27.89381980896,-15.7296781539917,Cruz de Mogán,,Mogán,Gran Canaria,Canary Islands,Spain,ES,Ward Langeraert,HumanObservation,Y,13,Ward Langeraert,Ward Langeraert,,sp.,animalia,checklist_snails_spain:taxon:818875f00d346deedc2adcb0969b3dbf,my_language,my_license,my_rights_holder
104,,Helicidae,Otala lactea,Otala,lactea,,"(O.F. Müller, 1774)",2020-02-04T00:00:00Z,empty shell,1,,,exact,27.8939304351807,-15.730411529541,Cruz de Mogán,,Mogán,Gran Canaria,Canary Islands,Spain,ES,Ward Langeraert,HumanObservation,N,,Ward Langeraert,Ward Langeraert,,sp.,animalia,checklist_snails_spain:taxon:efd436313771c5836b28fab2b9680036,my_language,my_license,my_rights_holder
105,,Helicidae,Hemicycla psathyra psathyra,Hemicycla,psathyra,psathyra,"(R.T. Lowe, 1861)",2020-02-04T00:00:00Z,empty shell,2,,,exact,27.8923606872559,-15.7298069000244,Cruz de Mogán,,Mogán,Gran Canaria,Canary Islands,Spain,ES,Ward Langeraert,HumanObservation,N,,Ward Langeraert,Ward Langeraert,,infrasp.,animalia,checklist_snails_spain:taxon:296437d6cc42080932a23d5fe86dc489,my_language,my_license,my_rights_holder
106,,Trissexodontidae,Caracollina lenticula,Caracollina,lenticula,,"(Michaud, 1831)",2020-02-05T00:00:00Z,empty shell,2,,,exact,27.7793560028076,-15.5309648513794,Between Playa del Águila and Cañon del Águila,,San Bartolomé de Tirajana,Gran Canaria,Canary Islands,Spain,ES,Ward Langeraert,HumanObservation,N,,Ward Langeraert,Ward Langeraert,,sp.,animalia,checklist_snails_spain:taxon:47273d8d7c32619368d1ace036f6d5e0,my_language,my_license,my_rights_holder
107,,Geomitridae,Monilearia persimilis,Monilearia,persimilis,,"(Shuttleworth, 1852)",2020-02-05T00:00:00Z,empty shell,25,,,estimate,27.7790412902832,-15.5314407348633,Between Playa del Águila and Cañon del Águila,,San Bartolomé de Tirajana,Gran Canaria,Canary Islands,Spain,ES,Ward Langeraert,HumanObservation,Y,14,Ward Langeraert,Ward Langeraert,difference M. praeposita?,sp.,animalia,checklist_snails_spain:taxon:47b55bbc28abb9e45b2979b33e5e5e9b,my_language,my_license,my_rights_holder
108,,Helicidae,Hemicycla berkeleii,Hemicycla,berkeleii,,"(R.T. Lowe, 1861)",2020-02-05T00:00:00Z,empty shell,15,9,6,exact,27.7790222167969,-15.5314569473267,Between Playa del Águila and Cañon del Águila,,San Bartolomé de Tirajana,Gran Canaria,Canary Islands,Spain,ES,Ward Langeraert,HumanObservation,Y,14,Ward Langeraert,Ward Langeraert,,sp.,animalia,checklist_snails_spain:taxon:2abd2b43b9c36bb4eb7101fe432d646f,my_language,my_license,my_rights_holder
109,,Geomitridae,Monilearia persimilis,Monilearia,persimilis,,"(Shuttleworth, 1852)",2020-02-05T00:00:00Z,empty shell,10,,,estimate,27.7834281921387,-15.5360708236694,Between Playa del Águila and Cañon del Águila,,San Bartolomé de Tirajana,Gran Canaria,Canary Islands,Spain,ES,Ward Langeraert,HumanObservation,N,,Ward Langeraert,Ward Langeraert,difference M. praeposita?,sp.,animalia,checklist_snails_spain:taxon:47b55bbc28abb9e45b2979b33e5e5e9b,my_language,my_license,my_rights_holder
110,,Helicidae,Hemicycla berkeleii,Hemicycla,berkeleii,,"(R.T. Lowe, 1861)",2020-02-05T00:00:00Z,empty shell,8,2,6,exact,27.783863067627,-15.5368585586548,Between Playa del Águila and Cañon del Águila,,San Bartolomé de Tirajana,Gran Canaria,Canary Islands,Spain,ES,Ward Langeraert,HumanObservation,Y,15,Ward Langeraert,Ward Langeraert,,sp.,animalia,checklist_snails_spain:taxon:2abd2b43b9c36bb4eb7101fe432d646f,my_language,my_license,my_rights_holder
111,,Trissexodontidae,Caracollina lenticula,Caracollina,lenticula,,"(Michaud, 1831)",2020-02-05T00:00:00Z,empty shell,1,,,exact,27.7842884063721,-15.5367107391357,Between Playa del Águila and Cañon del Águila,,San Bartolomé de Tirajana,Gran Canaria,Canary Islands,Spain,ES,Ward Langeraert,HumanObservation,N,,Ward Langeraert,Ward Langeraert,,sp.,animalia,checklist_snails_spain:taxon:47273d8d7c32619368d1ace036f6d5e0,my_language,my_license,my_rights_holder
112,,Geomitridae,Monilearia persimilis,Monilearia,persimilis,,"(Shuttleworth, 1852)",2020-02-05T00:00:00Z,empty shell,10,,,estimate,27.7861328125,-15.5366487503052,Between Playa del Águila and Cañon del Águila,,San Bartolomé de Tirajana,Gran Canaria,Canary Islands,Spain,ES,Ward Langeraert,HumanObservation,N,,Ward Langeraert,Ward Langeraert,difference M. praeposita?,sp.,animalia,checklist_snails_spain:taxon:47b55bbc28abb9e45b2979b33e5e5e9b,my_language,my_license,my_rights_holder
113,,Helicidae,Hemicycla berkeleii,Hemicycla,berkeleii,,"(R.T. Lowe, 1861)",2020-02-05T00:00:00Z,empty shell,1,0,1,exact,27.7861576080322,-15.5366516113281,Between Playa del Águila and Cañon del Águila,,San Bartolomé de Tirajana,Gran Canaria,Canary Islands,Spain,ES,Ward Langeraert,HumanObservation,N,,Ward Langeraert,Ward Langeraert,,sp.,animalia,checklist_snails_spain:taxon:2abd2b43b9c36bb4eb7101fe432d646f,my_language,my_license,my_rights_holder
114,,Geomitridae,Monilearia persimilis,Monilearia,persimilis,,"(Shuttleworth, 1852)",2020-02-05T00:00:00Z,empty shell,1,,,exact,27.7900447845459,-15.5368137359619,Barranco del Tariscal del Águila,,San Bartolomé de Tirajana,Gran Canaria,Canary Islands,Spain,ES,Ward Langeraert,HumanObservation,N,,Ward Langeraert,Ward Langeraert,difference M. praeposita?,sp.,animalia,checklist_snails_spain:taxon:47b55bbc28abb9e45b2979b33e5e5e9b,my_language,my_license,my_rights_holder
115,,Helicidae,Hemicycla berkeleii,Hemicycla,berkeleii,,"(R.T. Lowe, 1861)",2020-02-05T00:00:00Z,empty shell,2,0,2,exact,27.7902374267578,-15.537672996521,Barranco del Tariscal del Águila,,San Bartolomé de Tirajana,Gran Canaria,Canary Islands,Spain,ES,Ward Langeraert,HumanObservation,Y,16,Ward Langeraert,Ward Langeraert,,sp.,animalia,checklist_snails_spain:taxon:2abd2b43b9c36bb4eb7101fe432d646f,my_language,my_license,my_rights_holder
116,,Planorbidae,Ancylus striatus,Ancylus,striatus,,"Quoy & Gaimard, 1834",2020-02-05T00:00:00Z,empty shell,30,,,estimate,27.7917366,-15.54069805,Barranco del Tariscal del Águila,,San Bartolomé de Tirajana,Gran Canaria,Canary Islands,Spain,ES,Ward Langeraert,HumanObservation,Y,16,Ward Langeraert,Ward Langeraert,,sp.,animalia,checklist_snails_spain:taxon:ac62bb8aea0603fac8f33379896c6f81,my_language,my_license,my_rights_holder
117,,Planorbidae,Ancylus striatus,Ancylus,striatus,,"Quoy & Gaimard, 1834",2020-02-05T00:00:00Z,alive,30,,,estimate,27.79182625,-15.54065704,Barranco del Tariscal del Águila,,San Bartolomé de Tirajana,Gran Canaria,Canary Islands,Spain,ES,Ward Langeraert,HumanObservation,N,,Ward Langeraert,Ward Langeraert,,sp.,animalia,checklist_snails_spain:taxon:ac62bb8aea0603fac8f33379896c6f81,my_language,my_license,my_rights_holder
118,,Physidae,Physella cf. acuta,Physella,cf. acuta,,,2020-02-05T00:00:00Z,empty shell,20,,,estimate,27.79182243,-15.5406599,Barranco del Tariscal del Águila,,San Bartolomé de Tirajana,Gran Canaria,Canary Islands,Spain,ES,Ward Langeraert,HumanObservation,Y,16,Ward Langeraert,Ward Langeraert,check with A. hypnorum,sp.,animalia,checklist_snails_spain:taxon:c0583f16942a0ebf6993ce94878900ab,my_language,my_license,my_rights_holder
119,,Trissexodontidae,Caracollina lenticula,Caracollina,lenticula,,"(Michaud, 1831)",2020-02-05T00:00:00Z,empty shell,1,0,1,exact,27.7918682098389,-15.5406084060669,Barranco del Tariscal del Águila,,San Bartolomé de Tirajana,Gran Canaria,Canary Islands,Spain,ES,Ward Langeraert,HumanObservation,N,,Ward Langeraert,Ward Langeraert,,sp.,animalia,checklist_snails_spain:taxon:47273d8d7c32619368d1ace036f6d5e0,my_language,my_license,my_rights_holder
120,,Planorbidae,Ancylus striatus,Ancylus,striatus,,"Quoy & Gaimard, 1834",2020-02-05T00:00:00Z,empty shell,60,,,estimate,27.79301834,-15.54146767,Barranco del Tariscal del Águila,,San Bartolomé de Tirajana,Gran Canaria,Canary Islands,Spain,ES,Ward Langeraert,HumanObservation,Y,17,Ward Langeraert,Ward Langeraert,ground sample taken,sp.,animalia,checklist_snails_spain:taxon:ac62bb8aea0603fac8f33379896c6f81,my_language,my_license,my_rights_holder
121,,Helicidae,Hemicycla berkeleii,Hemicycla,berkeleii,,"(R.T. Lowe, 1861)",2020-02-05T00:00:00Z,empty shell,15,2,13,exact,27.7930450439453,-15.5415506362915,Barranco del Tariscal del Águila,,San Bartolomé de Tirajana,Gran Canaria,Canary Islands,Spain,ES,Ward Langeraert,HumanObservation,Y,18,Ward Langeraert,Ward Langeraert,,sp.,animalia,checklist_snails_spain:taxon:2abd2b43b9c36bb4eb7101fe432d646f,my_language,my_license,my_rights_holder
122,,Helicidae,Hemicycla berkeleii,Hemicycla,berkeleii,,"(R.T. Lowe, 1861)",2020-02-05T00:00:00Z,alive,1,0,1,exact,27.7929534912109,-15.5425491333008,Barranco del Tariscal del Águila,,San Bartolomé de Tirajana,Gran Canaria,Canary Islands,Spain,ES,Ward Langeraert,HumanObservation,N,,Ward Langeraert,Ward Langeraert,,sp.,animalia,checklist_snails_spain:taxon:2abd2b43b9c36bb4eb7101fe432d646f,my_language,my_license,my_rights_holder
123,,Geomitridae,Monilearia persimilis,Monilearia,persimilis,,"(Shuttleworth, 1852)",2020-02-05T00:00:00Z,empty shell,10,,,estimate,27.7929553985596,-15.5426483154297,Barranco del Tariscal del Águila,,San Bartolomé de Tirajana,Gran Canaria,Canary Islands,Spain,ES,Ward Langeraert,HumanObservation,N,,Ward Langeraert,Ward Langeraert,difference M. praeposita?,sp.,animalia,checklist_snails_spain:taxon:47b55bbc28abb9e45b2979b33e5e5e9b,my_language,my_license,my_rights_holder
124,,Helicidae,Hemicycla cf. psathyra temperata,Hemicycla,cf. psathyra,cf. temperata,"(Mousson, 1872)",2020-02-05T00:00:00Z,empty shell,15,,,estimate,27.7933444976807,-15.5434770584106,Barranco del Tariscal del Águila,,San Bartolomé de Tirajana,Gran Canaria,Canary Islands,Spain,ES,Ward Langeraert,HumanObservation,Y,18,Ward Langeraert,Ward Langeraert,location is strange,infrasp.,animalia,checklist_snails_spain:taxon:0b17a304596aa4d46a9787c179926cd1,my_language,my_license,my_rights_holder
125,,Trissexodontidae,Caracollina lenticula,Caracollina,lenticula,,"(Michaud, 1831)",2020-02-05T00:00:00Z,empty shell,1,0,1,exact,27.7933044433594,-15.5435104370117,Barranco del Tariscal del Águila,,San Bartolomé de Tirajana,Gran Canaria,Canary Islands,Spain,ES,Ward Langeraert,HumanObservation,N,,Ward Langeraert,Ward Langeraert,,sp.,animalia,checklist_snails_spain:taxon:47273d8d7c32619368d1ace036f6d5e0,my_language,my_license,my_rights_holder
126,,Geomitridae,Obelus despreauxii,Obelus,despreauxii,,"(d´Orbigny, 1839)",2020-02-05T00:00:00Z,(sub)fossil,25,,,estimate,27.7451286315918,-15.5750846862793,Dunas de Maspalomas,,San Bartolomé de Tirajana,Gran Canaria,Canary Islands,Spain,ES,Ward Langeraert,HumanObservation,Y,19,Ward Langeraert,Ward Langeraert,,sp.,animalia,checklist_snails_spain:taxon:14d81da53bccaacb0eda3292eedd9be8,my_language,my_license,my_rights_holder
127,,Geomitridae,Monilearia spec.,,,,,2020-02-05T00:00:00Z,(sub)fossil,10,,,estimate,27.7452354431152,-15.5751085281372,Dunas de Maspalomas,,San Bartolomé de Tirajana,Gran Canaria,Canary Islands,Spain,ES,Ward Langeraert,HumanObservation,Y,19,Ward Langeraert,Ward Langeraert,M. pulverulenta and/or M. arguineguinensis?,sp.,animalia,checklist_snails_spain:taxon:357923b368de13870c669e8e92f2297c,my_language,my_license,my_rights_holder
128,,Trissexodontidae,Caracollina lenticula,Caracollina,lenticula,,"(Michaud, 1831)",2020-02-05T00:00:00Z,(sub)fossil,5,,,exact,27.7454891204834,-15.5751085281372,Dunas de Maspalomas,,San Bartolomé de Tirajana,Gran Canaria,Canary Islands,Spain,ES,Ward Langeraert,HumanObservation,N,,Ward Langeraert,Ward Langeraert,,sp.,animalia,checklist_snails_spain:taxon:47273d8d7c32619368d1ace036f6d5e0,my_language,my_license,my_rights_holder
129,,Helicidae,Theba geminata,Theba,geminata,,"(Mousson, 1857)",2020-02-05T00:00:00Z,empty shell,1,0,1,exact,27.7454643249512,-15.5751152038574,Dunas de Maspalomas,,San Bartolomé de Tirajana,Gran Canaria,Canary Islands,Spain,ES,Ward Langeraert,HumanObservation,Y,19,Ward Langeraert,Ward Langeraert,to check,sp.,animalia,checklist_snails_spain:taxon:6cb0a407c2adc621e2e9ac227029ae93,my_language,my_license,my_rights_holder
130,,Geomitridae,Cochlicella barbara,Cochlicella,barbara,,"(Linnaeus, 1758)",2020-02-05T00:00:00Z,empty shell,1,1,0,exact,27.7449798583984,-15.5754661560059,Dunas de Maspalomas,,San Bartolomé de Tirajana,Gran Canaria,Canary Islands,Spain,ES,Ward Langeraert,HumanObservation,Y,19,Ward Langeraert,Ward Langeraert,,sp.,animalia,checklist_snails_spain:taxon:b666127feb59bca88e34f938704bd73e,my_language,my_license,my_rights_holder
131,,Geomitridae,Obelus pumilio,Obelus,pumilio,,"(Dillwyn, 1817)",2020-02-05T00:00:00Z,(sub)fossil,1,0,1,exact,27.7441120147705,-15.5773315429688,Dunas de Maspalomas,,San Bartolomé de Tirajana,Gran Canaria,Canary Islands,Spain,ES,Ward Langeraert,HumanObservation,Y,20,Ward Langeraert,Ward Langeraert,,sp.,animalia,checklist_snails_spain:taxon:17fc81f0099ecbd1f561d7c18d2959fe,my_language,my_license,my_rights_holder
132,,Geomitridae,Monilearia spec.,,,,,2020-02-05T00:00:00Z,(sub)fossil,30,,,estimate,27.7441272735596,-15.5773954391479,Dunas de Maspalomas,,San Bartolomé de Tirajana,Gran Canaria,Canary Islands,Spain,ES,Ward Langeraert,HumanObservation,Y,20,Ward Langeraert,Ward Langeraert,M. pulverulenta and/or M. arguineguinensis?,sp.,animalia,checklist_snails_spain:taxon:357923b368de13870c669e8e92f2297c,my_language,my_license,my_rights_holder
133,,Geomitridae,Obelus despreauxii,Obelus,despreauxii,,"(d´Orbigny, 1839)",2020-02-05T00:00:00Z,(sub)fossil,40,,,estimate,27.7441272735596,-15.5773916244507,Dunas de Maspalomas,,San Bartolomé de Tirajana,Gran Canaria,Canary Islands,Spain,ES,Ward Langeraert,HumanObservation,Y,20,Ward Langeraert,Ward Langeraert,,sp.,animalia,checklist_snails_spain:taxon:14d81da53bccaacb0eda3292eedd9be8,my_language,my_license,my_rights_holder
134,,Trissexodontidae,Caracollina lenticula,Caracollina,lenticula,,"(Michaud, 1831)",2020-02-05T00:00:00Z,(sub)fossil,1,,,exact,27.7440586090088,-15.5773754119873,Dunas de Maspalomas,,San Bartolomé de Tirajana,Gran Canaria,Canary Islands,Spain,ES,Ward Langeraert,HumanObservation,N,,Ward Langeraert,Ward Langeraert,,sp.,animalia,checklist_snails_spain:taxon:47273d8d7c32619368d1ace036f6d5e0,my_language,my_license,my_rights_holder
135,,Trissexodontidae,Caracollina lenticula,Caracollina,lenticula,,"(Michaud, 1831)",2020-02-05T00:00:00Z,(sub)fossil,1,0,1,exact,27.7392768859863,-15.5853586196899,Dunas de Maspalomas,,San Bartolomé de Tirajana,Gran Canaria,Canary Islands,Spain,ES,Ward Langeraert,HumanObservation,N,,Ward Langeraert,Ward Langeraert,,sp.,animalia,checklist_snails_spain:taxon:47273d8d7c32619368d1ace036f6d5e0,my_language,my_license,my_rights_holder
136,,Geomitridae,Obelus despreauxii,Obelus,despreauxii,,"(d´Orbigny, 1839)",2020-02-05T00:00:00Z,(sub)fossil,3,1,2,exact,27.7391929626465,-15.585412979126,Dunas de Maspalomas,,San Bartolomé de Tirajana,Gran Canaria,Canary Islands,Spain,ES,Ward Langeraert,HumanObservation,Y,21,Ward Langeraert,Ward Langeraert,,sp.,animalia,checklist_snails_spain:taxon:14d81da53bccaacb0eda3292eedd9be8,my_language,my_license,my_rights_holder
137,,Geomitridae,Monilearia spec.,,,,,2020-02-05T00:00:00Z,(sub)fossil,2,,,exact,27.7391929626465,-15.585412979126,Dunas de Maspalomas,,San Bartolomé de Tirajana,Gran Canaria,Canary Islands,Spain,ES,Ward Langeraert,HumanObservation,Y,21,Ward Langeraert,Ward Langeraert,M. pulverulenta and/or M. arguineguinensis?,sp.,animalia,checklist_snails_spain:taxon:357923b368de13870c669e8e92f2297c,my_language,my_license,my_rights_holder
138,,Helicidae,Theba spec.,Theba,spec.,,,2020-02-05T00:00:00Z,(sub)fossil,1,1,0,exact,27.7391929626465,-15.585412979126,Dunas de Maspalomas,,San Bartolomé de Tirajana,Gran Canaria,Canary Islands,Spain,ES,Ward Langeraert,HumanObservation,Y,21,Ward Langeraert,Ward Langeraert,T. geminata?,sp.,animalia,checklist_snails_spain:taxon:93459e4557a1edf0006eeea92901ac47,my_language,my_license,my_rights_holder
139,,Helicidae,Otala lactea,Otala,lactea,,"(O.F. Müller, 1774)",2020-02-07T00:00:00Z,empty shell,5,0,5,exact,27.98452568,-15.78273773,La Aldea de San Nicolás de Tolentino,,La Aldea de San Nicolás,Gran Canaria,Canary Islands,Spain,ES,Ward Langeraert,HumanObservation,N,,Ward Langeraert,Ward Langeraert,,sp.,animalia,checklist_snails_spain:taxon:efd436313771c5836b28fab2b9680036,my_language,my_license,my_rights_holder
140,,Helicidae,Hemicycla psathyra temperata,Hemicycla,psathyra,temperata,"(Mousson, 1872)",2020-02-07T00:00:00Z,empty shell,1,0,1,exact,27.97922134,-15.77190495,Molino de Agua,,La Aldea de San Nicolás,Gran Canaria,Canary Islands,Spain,ES,Ward Langeraert,HumanObservation,N,,Ward Langeraert,Ward Langeraert,,infrasp.,animalia,checklist_snails_spain:taxon:d4463792248aeec4670de7df816483c6,my_language,my_license,my_rights_holder
141,,Helicidae,Theba geminata,Theba,geminata,,"(Mousson, 1857)",2020-02-07T00:00:00Z,alive,3,0,3,exact,27.97904205,-15.77173615,Molino de Agua,,La Aldea de San Nicolás,Gran Canaria,Canary Islands,Spain,ES,Ward Langeraert,HumanObservation,N,,Ward Langeraert,Ward Langeraert,,sp.,animalia,checklist_snails_spain:taxon:6cb0a407c2adc621e2e9ac227029ae93,my_language,my_license,my_rights_holder
142,,Helicidae,Theba geminata,Theba,geminata,,"(Mousson, 1857)",2020-02-07T00:00:00Z,empty shell,20,,,estimate,27.9790344238281,-15.7717351913452,Molino de Agua,,La Aldea de San Nicolás,Gran Canaria,Canary Islands,Spain,ES,Ward Langeraert,HumanObservation,Y,22,Ward Langeraert,Ward Langeraert,,sp.,animalia,checklist_snails_spain:taxon:6cb0a407c2adc621e2e9ac227029ae93,my_language,my_license,my_rights_holder
143,,Helicidae,Otala lactea,Otala,lactea,,"(O.F. Müller, 1774)",2020-02-07T00:00:00Z,empty shell,2,0,2,exact,27.97860527,-15.77147293,Molino de Agua,,La Aldea de San Nicolás,Gran Canaria,Canary Islands,Spain,ES,Ward Langeraert,HumanObservation,N,,Ward Langeraert,Ward Langeraert,,sp.,animalia,checklist_snails_spain:taxon:efd436313771c5836b28fab2b9680036,my_language,my_license,my_rights_holder
144,,Helicidae,Hemicycla psathyra temperata,Hemicycla,psathyra,temperata,"(Mousson, 1872)",2020-02-07T00:00:00Z,empty shell,30,,,estimate,27.97743225,-15.7685585,Barranco de la Aldea southern slope (E of Molino de Agua),,La Aldea de San Nicolás,Gran Canaria,Canary Islands,Spain,ES,Ward Langeraert,HumanObservation,Y,23,Ward Langeraert,Ward Langeraert,,infrasp.,animalia,checklist_snails_spain:taxon:d4463792248aeec4670de7df816483c6,my_language,my_license,my_rights_holder
145,,Trissexodontidae,Caracollina lenticula,Caracollina,lenticula,,"(Michaud, 1831)",2020-02-07T00:00:00Z,empty shell,1,0,1,exact,27.97727776,-15.76835728,Barranco de la Aldea southern slope (E of Molino de Agua),,La Aldea de San Nicolás,Gran Canaria,Canary Islands,Spain,ES,Ward Langeraert,HumanObservation,Y,23,Ward Langeraert,Ward Langeraert,,sp.,animalia,checklist_snails_spain:taxon:47273d8d7c32619368d1ace036f6d5e0,my_language,my_license,my_rights_holder
146,,Geomitridae,Monilearia persimilis,Monilearia,persimilis,,"(Shuttleworth, 1852)",2020-02-07T00:00:00Z,empty shell,20,,,estimate,27.97725868,-15.76834965,Barranco de la Aldea southern slope (E of Molino de Agua),,La Aldea de San Nicolás,Gran Canaria,Canary Islands,Spain,ES,Ward Langeraert,HumanObservation,Y,23,Ward Langeraert,Ward Langeraert,difference M. praeposita?,sp.,animalia,checklist_snails_spain:taxon:47b55bbc28abb9e45b2979b33e5e5e9b,my_language,my_license,my_rights_holder
147,,Vitrinidae,Insulivitrina nogalesi,Insulivitrina,nogalesi,,"Alonso & Ibáñez, 1990",2020-02-07T00:00:00Z,empty shell,2,0,2,exact,27.97716904,-15.76831055,Barranco de la Aldea southern slope (E of Molino de Agua),,La Aldea de San Nicolás,Gran Canaria,Canary Islands,Spain,ES,Ward Langeraert,HumanObservation,Y,23,Ward Langeraert,Ward Langeraert,,sp.,animalia,checklist_snails_spain:taxon:341c3522f626c197fe00cd71848755ae,my_language,my_license,my_rights_holder
148,,Geomitridae,Xerotricha orbignii,Xerotricha,orbignii,,"(d'Orbigny, 1836)",2020-02-07T00:00:00Z,empty shell,3,3,0,exact,27.97716904,-15.76833057,Barranco de la Aldea southern slope (E of Molino de Agua),,La Aldea de San Nicolás,Gran Canaria,Canary Islands,Spain,ES,Ward Langeraert,HumanObservation,Y,23,Ward Langeraert,Ward Langeraert,X. aff. orbignii?,sp.,animalia,checklist_snails_spain:taxon:9cf5392aeb8974a621aea21248e4d249,my_language,my_license,my_rights_holder
149,,Streptaxidae,Gibbulinella spec.,Gibbulinella,spec.,,,2020-02-07T00:00:00Z,empty shell,4,1,3,exact,27.97780418,-15.76633644,Barranco de la Aldea southern slope (E of Molino de Agua),,La Aldea de San Nicolás,Gran Canaria,Canary Islands,Spain,ES,Ward Langeraert,HumanObservation,Y,23,Ward Langeraert,Ward Langeraert,G. aff. dewinteri?,sp.,animalia,checklist_snails_spain:taxon:cc848f265d6f35686123e177aaccddfa,my_language,my_license,my_rights_holder
150,,Pomatiidae,Pomatias aff. laevigatus,Pomatias,aff. laevigatus,,,2020-02-07T00:00:00Z,empty shell,6,,,exact,27.97766876,-15.7662487,Barranco de la Aldea southern slope (E of Molino de Agua),,La Aldea de San Nicolás,Gran Canaria,Canary Islands,Spain,ES,Ward Langeraert,HumanObservation,Y,23,Ward Langeraert,Ward Langeraert,"smooth surface, same species as on Tenerife?",sp.,animalia,checklist_snails_spain:taxon:7bc66aaca388e61360978970b3028266,my_language,my_license,my_rights_holder
151,,Enidae,Napaeus interpunctatus,Napaeus,interpunctatus,,"(Wollaston, 1878)",2020-02-07T00:00:00Z,empty shell,4,1,3,exact,27.97766876,-15.7662487,Barranco de la Aldea southern slope (E of Molino de Agua),,La Aldea de San Nicolás,Gran Canaria,Canary Islands,Spain,ES,Ward Langeraert,HumanObservation,Y,23,Ward Langeraert,Ward Langeraert,check with shells from Agaete and Galdar,sp.,animalia,checklist_snails_spain:taxon:c39645d9fdabce752e2fc9e556a4d8a5,my_language,my_license,my_rights_holder
152,,Enidae,Napaeus venegueraensis,Napaeus,venegueraensis,,"Artiles, Santana & Deniz, 2011",2020-02-07T00:00:00Z,empty shell,1,0,1,exact,27.97766876,-15.7662487,Barranco de la Aldea southern slope (E of Molino de Agua),,La Aldea de San Nicolás,Gran Canaria,Canary Islands,Spain,ES,Ward Langeraert,HumanObservation,Y,23,Ward Langeraert,Ward Langeraert,,sp.,animalia,checklist_snails_spain:taxon:cd16c84b5b614f180d850b0c02a3f8e7,my_language,my_license,my_rights_holder
153,,Helicidae,Hemicycla psathyra temperata,Hemicycla,psathyra,temperata,"(Mousson, 1872)",2020-02-07T00:00:00Z,empty shell,30,,,estimate,27.98385048,-15.75283241,Between Barranco de la Aldea and Barranco del Pino Gordo,,La Aldea de San Nicolás,Gran Canaria,Canary Islands,Spain,ES,Ward Langeraert,HumanObservation,Y,24,Ward Langeraert,Ward Langeraert,,infrasp.,animalia,checklist_snails_spain:taxon:d4463792248aeec4670de7df816483c6,my_language,my_license,my_rights_holder
154,,Geomitridae,Monilearia persimilis,Monilearia,persimilis,,"(Shuttleworth, 1852)",2020-02-07T00:00:00Z,empty shell,30,,,estimate,27.98427391,-15.75175095,Between Barranco de la Aldea and Barranco del Pino Gordo,,La Aldea de San Nicolás,Gran Canaria,Canary Islands,Spain,ES,Ward Langeraert,HumanObservation,Y,24,Ward Langeraert,Ward Langeraert,difference M. praeposita?,sp.,animalia,checklist_snails_spain:taxon:47b55bbc28abb9e45b2979b33e5e5e9b,my_language,my_license,my_rights_holder
155,,Helicidae,Hemicycla saponacea,Hemicycla,saponacea,,"(R.T. Lowe, 1861)",2020-02-07T00:00:00Z,empty shell,3,0,3,exact,27.98427391,-15.75175095,Between Barranco de la Aldea and Barranco del Pino Gordo,,La Aldea de San Nicolás,Gran Canaria,Canary Islands,Spain,ES,Ward Langeraert,HumanObservation,Y,24,Ward Langeraert,Ward Langeraert,,sp.,animalia,checklist_snails_spain:taxon:8719a9f4488198a9acc0ab227ca31830,my_language,my_license,my_rights_holder
156,,Enidae,Napaeus interpunctatus,Napaeus,interpunctatus,,"(Wollaston, 1878)",2020-02-07T00:00:00Z,empty shell,11,5,6,exact,27.98419952,-15.75110054,Between Barranco de la Aldea and Barranco del Pino Gordo,,La Aldea de San Nicolás,Gran Canaria,Canary Islands,Spain,ES,Ward Langeraert,HumanObservation,Y,24,Ward Langeraert,Ward Langeraert,check with shells from Agaete and Galdar,sp.,animalia,checklist_snails_spain:taxon:c39645d9fdabce752e2fc9e556a4d8a5,my_language,my_license,my_rights_holder
157,,Trissexodontidae,Caracollina lenticula,Caracollina,lenticula,,"(Michaud, 1831)",2020-02-07T00:00:00Z,empty shell,7,,7,exact,27.98419952,-15.75111675,Between Barranco de la Aldea and Barranco del Pino Gordo,,La Aldea de San Nicolás,Gran Canaria,Canary Islands,Spain,ES,Ward Langeraert,HumanObservation,Y,24,Ward Langeraert,Ward Langeraert,,sp.,animalia,checklist_snails_spain:taxon:47273d8d7c32619368d1ace036f6d5e0,my_language,my_license,my_rights_holder
158,,Enidae,Napaeus validoi,Napaeus,validoi,,"Ibáñez, Alonso & Martín, 2011",2020-02-07T00:00:00Z,empty shell,5,1,4,exact,27.98419952,-15.75110054,Between Barranco de la Aldea and Barranco del Pino Gordo,,La Aldea de San Nicolás,Gran Canaria,Canary Islands,Spain,ES,Ward Langeraert,HumanObservation,Y,24,Ward Langeraert,Ward Langeraert,,sp.,animalia,checklist_snails_spain:taxon:34281a0041a36b0a8eccafcd925ef073,my_language,my_license,my_rights_holder
159,,Geomitridae,Xerotricha orbignii,Xerotricha,orbignii,,"(d'Orbigny, 1836)",2020-02-07T00:00:00Z,empty shell,3,1,2,exact,27.98425674,-15.75098705,Between Barranco de la Aldea and Barranco del Pino Gordo,,La Aldea de San Nicolás,Gran Canaria,Canary Islands,Spain,ES,Ward Langeraert,HumanObservation,Y,24,Ward Langeraert,Ward Langeraert,X. aff. orbignii?,sp.,animalia,checklist_snails_spain:taxon:9cf5392aeb8974a621aea21248e4d249,my_language,my_license,my_rights_holder
160,,Pomatiidae,Pomatias aff. laevigatus,Pomatias,aff. laevigatus,,,2020-02-07T00:00:00Z,empty shell,1,,,exact,27.98424721,-15.75104427,Between Barranco de la Aldea and Barranco del Pino Gordo,,La Aldea de San Nicolás,Gran Canaria,Canary Islands,Spain,ES,Ward Langeraert,HumanObservation,Y,24,Ward Langeraert,Ward Langeraert,"smooth surface, same species as on Tenerife?",sp.,animalia,checklist_snails_spain:taxon:7bc66aaca388e61360978970b3028266,my_language,my_license,my_rights_holder
161,,Streptaxidae,Gibbulinella spec.,Gibbulinella,spec.,,,2020-02-07T00:00:00Z,empty shell,3,2,1,exact,27.98424721,-15.75104427,Between Barranco de la Aldea and Barranco del Pino Gordo,,La Aldea de San Nicolás,Gran Canaria,Canary Islands,Spain,ES,Ward Langeraert,HumanObservation,Y,24,Ward Langeraert,Ward Langeraert,G. aff. dewinteri?,sp.,animalia,checklist_snails_spain:taxon:cc848f265d6f35686123e177aaccddfa,my_language,my_license,my_rights_holder
162,,Geomitridae,Monilearia persimilis,Monilearia,persimilis,,"(Shuttleworth, 1852)",2020-02-07T00:00:00Z,empty shell,1,,,exact,27.9827423095703,-15.7492418289185,Barranco del Pino Gordo,,La Aldea de San Nicolás,Gran Canaria,Canary Islands,Spain,ES,Ward Langeraert,HumanObservation,N,,Ward Langeraert,Ward Langeraert,difference M. praeposita?,sp.,animalia,checklist_snails_spain:taxon:47b55bbc28abb9e45b2979b33e5e5e9b,my_language,my_license,my_rights_holder
163,,Trissexodontidae,Caracollina lenticula,Caracollina,lenticula,,"(Michaud, 1831)",2020-02-07T00:00:00Z,empty shell,1,,,exact,27.982723236084,-15.7492771148682,Barranco del Pino Gordo,,La Aldea de San Nicolás,Gran Canaria,Canary Islands,Spain,ES,Ward Langeraert,HumanObservation,N,,Ward Langeraert,Ward Langeraert,,sp.,animalia,checklist_snails_spain:taxon:47273d8d7c32619368d1ace036f6d5e0,my_language,my_license,my_rights_holder
164,,Pomatiidae,Pomatias aff. laevigatus,Pomatias,aff. laevigatus,,,2020-02-07T00:00:00Z,empty shell,4,0,4,exact,27.98270607,-15.74937248,Barranco del Pino Gordo,,La Aldea de San Nicolás,Gran Canaria,Canary Islands,Spain,ES,Ward Langeraert,HumanObservation,Y,27,Ward Langeraert,Ward Langeraert,"smooth surface, same species as on Tenerife?",sp.,animalia,checklist_snails_spain:taxon:7bc66aaca388e61360978970b3028266,my_language,my_license,my_rights_holder
165,,Enidae,Napaeus interpunctatus,Napaeus,interpunctatus,,"(Wollaston, 1878)",2020-02-07T00:00:00Z,empty shell,1,,1,exact,27.98283958,-15.74889183,Barranco del Pino Gordo,,La Aldea de San Nicolás,Gran Canaria,Canary Islands,Spain,ES,Ward Langeraert,HumanObservation,Y,27,Ward Langeraert,Ward Langeraert,check with shells from Agaete and Galdar,sp.,animalia,checklist_snails_spain:taxon:c39645d9fdabce752e2fc9e556a4d8a5,my_language,my_license,my_rights_holder
166,,Helicidae,Hemicycla psathyra temperata,Hemicycla,psathyra,temperata,"(Mousson, 1872)",2020-02-07T00:00:00Z,empty shell,10,,,estimate,27.98283958,-15.74889183,Barranco del Pino Gordo,,La Aldea de San Nicolás,Gran Canaria,Canary Islands,Spain,ES,Ward Langeraert,HumanObservation,Y,27,Ward Langeraert,Ward Langeraert,,infrasp.,animalia,checklist_snails_spain:taxon:d4463792248aeec4670de7df816483c6,my_language,my_license,my_rights_holder
167,,Streptaxidae,Gibbulinella spec.,Gibbulinella,spec.,,,2020-02-07T00:00:00Z,empty shell,1,1,0,exact,27.98283195,-15.74891663,Barranco del Pino Gordo,,La Aldea de San Nicolás,Gran Canaria,Canary Islands,Spain,ES,Ward Langeraert,HumanObservation,Y,27,Ward Langeraert,Ward Langeraert,G. aff. dewinteri?,sp.,animalia,checklist_snails_spain:taxon:cc848f265d6f35686123e177aaccddfa,my_language,my_license,my_rights_holder
168,,Geomitridae,Monilearia persimilis,Monilearia,persimilis,,"(Shuttleworth, 1852)",2020-02-07T00:00:00Z,alive,1,,,exact,27.9828167,-15.74892521,Barranco del Pino Gordo,,La Aldea de San Nicolás,Gran Canaria,Canary Islands,Spain,ES,Ward Langeraert,HumanObservation,N,,Ward Langeraert,Ward Langeraert,difference M. praeposita?,sp.,animalia,checklist_snails_spain:taxon:47b55bbc28abb9e45b2979b33e5e5e9b,my_language,my_license,my_rights_holder
169,,Enidae,Napaeus validoi,Napaeus,validoi,,"Ibáñez, Alonso & Martín, 2011",2020-02-07T00:00:00Z,empty shell,2,0,2,exact,27.98283958,-15.74889183,Barranco del Pino Gordo,,La Aldea de San Nicolás,Gran Canaria,Canary Islands,Spain,ES,Ward Langeraert,HumanObservation,Y,27,Ward Langeraert,Ward Langeraert,,sp.,animalia,checklist_snails_spain:taxon:34281a0041a36b0a8eccafcd925ef073,my_language,my_license,my_rights_holder
170,,Helicidae,Hemicycla saponacea,Hemicycla,saponacea,,"(R.T. Lowe, 1861)",2020-02-07T00:00:00Z,empty shell,4,0,4,exact,27.98283958,-15.74889183,Barranco del Pino Gordo,,La Aldea de San Nicolás,Gran Canaria,Canary Islands,Spain,ES,Ward Langeraert,HumanObservation,Y,27,Ward Langeraert,Ward Langeraert,,sp.,animalia,checklist_snails_spain:taxon:8719a9f4488198a9acc0ab227ca31830,my_language,my_license,my_rights_holder
171,,Planorbidae,Ancylus striatus,Ancylus,striatus,,"Quoy & Gaimard, 1834",2020-02-07T00:00:00Z,empty shell,7,,,exact,27.98278999,-15.74809265,Barranco del Pino Gordo,,La Aldea de San Nicolás,Gran Canaria,Canary Islands,Spain,ES,Ward Langeraert,HumanObservation,Y,25,Ward Langeraert,Ward Langeraert,,sp.,animalia,checklist_snails_spain:taxon:ac62bb8aea0603fac8f33379896c6f81,my_language,my_license,my_rights_holder
172,,Physidae,Physella acuta,Physella,acuta,,"(Draparnaud, 1805)",2020-02-07T00:00:00Z,empty shell,20,,,estimate,27.98280716,-15.74811554,Barranco del Pino Gordo,,La Aldea de San Nicolás,Gran Canaria,Canary Islands,Spain,ES,Ward Langeraert,HumanObservation,Y,25,Ward Langeraert,Ward Langeraert,,sp.,animalia,checklist_snails_spain:taxon:e29d482697f2783246e2341a6bdf8c5d,my_language,my_license,my_rights_holder
173,,Physidae,Physella acuta,Physella,acuta,,"(Draparnaud, 1805)",2020-02-07T00:00:00Z,alive,1,,,exact,27.9828071594238,-15.7481155395508,Barranco del Pino Gordo,,La Aldea de San Nicolás,Gran Canaria,Canary Islands,Spain,ES,Ward Langeraert,HumanObservation,N,,Ward Langeraert,Ward Langeraert,,sp.,animalia,checklist_snails_spain:taxon:e29d482697f2783246e2341a6bdf8c5d,my_language,my_license,my_rights_holder
174,,Lymnaeidae,Pseudosuccinea columella,Pseudosuccinea,columella,,"(Say, 1817)",2020-02-07T00:00:00Z,empty shell,30,,,estimate,27.98280907,-15.74809933,Barranco del Pino Gordo,,La Aldea de San Nicolás,Gran Canaria,Canary Islands,Spain,ES,Ward Langeraert,HumanObservation,Y,25,Ward Langeraert,Ward Langeraert,,sp.,animalia,checklist_snails_spain:taxon:f5539c4ee114adb8b0ca71fc6bb320a0,my_language,my_license,my_rights_holder
175,,Lymnaeidae ,Radix/Ampullaceana spec.,Radix/Ampullaceana,spec.,,,2020-02-07T00:00:00Z,empty shell,1,1,0,exact,27.98279762,-15.74812222,Barranco del Pino Gordo,,La Aldea de San Nicolás,Gran Canaria,Canary Islands,Spain,ES,Ward Langeraert,HumanObservation,Y,25,Ward Langeraert,Ward Langeraert,"never recorded from the Canaries, to check",sp.,animalia,checklist_snails_spain:taxon:5124b2647d8a6c4c22d3b1ddef74986a,my_language,my_license,my_rights_holder
176,,Planorbidae,Gyraulus parvus,Gyraulus,parvus,,"(Say, 1817)",2020-02-07T00:00:00Z,empty shell,2,0,2,exact,27.98283577,-15.74813175,Barranco del Pino Gordo,,La Aldea de San Nicolás,Gran Canaria,Canary Islands,Spain,ES,Ward Langeraert,HumanObservation,Y,25,Ward Langeraert,Ward Langeraert,,sp.,animalia,checklist_snails_spain:taxon:75224ff937484805f555fe7cb44f1161,my_language,my_license,my_rights_holder
177,,Planorbidae,Ancylus striatus,Ancylus,striatus,,"Quoy & Gaimard, 1834",2020-02-07T00:00:00Z,empty shell,20,,,estimate,27.98220062,-15.74792004,Barranco del Pino Gordo,,La Aldea de San Nicolás,Gran Canaria,Canary Islands,Spain,ES,Ward Langeraert,HumanObservation,Y,26,Ward Langeraert,Ward Langeraert,,sp.,animalia,checklist_snails_spain:taxon:ac62bb8aea0603fac8f33379896c6f81,my_language,my_license,my_rights_holder
178,,Lymnaeidae,Pseudosuccinea columella,Pseudosuccinea,columella,,"(Say, 1817)",2020-02-07T00:00:00Z,empty shell,40,,,estimate,27.98219872,-15.74791813,Barranco del Pino Gordo,,La Aldea de San Nicolás,Gran Canaria,Canary Islands,Spain,ES,Ward Langeraert,HumanObservation,Y,26,Ward Langeraert,Ward Langeraert,,sp.,animalia,checklist_snails_spain:taxon:f5539c4ee114adb8b0ca71fc6bb320a0,my_language,my_license,my_rights_holder
179,,Physidae,Physella acuta,Physella,acuta,,"(Draparnaud, 1805)",2020-02-07T00:00:00Z,empty shell,10,,,estimate,27.98219872,-15.74791813,Barranco del Pino Gordo,,La Aldea de San Nicolás,Gran Canaria,Canary Islands,Spain,ES,Ward Langeraert,HumanObservation,Y,26,Ward Langeraert,Ward Langeraert,,sp.,animalia,checklist_snails_spain:taxon:e29d482697f2783246e2341a6bdf8c5d,my_language,my_license,my_rights_holder
180,,Lymnaeidae ,Radix/Ampullaceana spec.,Radix/Ampullaceana,spec.,,,2020-02-07T00:00:00Z,empty shell,20,,,estimate,27.98221397,-15.74792862,Barranco del Pino Gordo,,La Aldea de San Nicolás,Gran Canaria,Canary Islands,Spain,ES,Ward Langeraert,HumanObservation,Y,26,Ward Langeraert,Ward Langeraert,"never recorded from the Canaries, to check",sp.,animalia,checklist_snails_spain:taxon:5124b2647d8a6c4c22d3b1ddef74986a,my_language,my_license,my_rights_holder
181,,Physidae,Physella acuta,Physella,acuta,,"(Draparnaud, 1805)",2020-02-07T00:00:00Z,alive,10,,,estimate,27.9822483062744,-15.7479591369629,Barranco del Pino Gordo,,La Aldea de San Nicolás,Gran Canaria,Canary Islands,Spain,ES,Ward Langeraert,HumanObservation,N,,Ward Langeraert,Ward Langeraert,,sp.,animalia,checklist_snails_spain:taxon:e29d482697f2783246e2341a6bdf8c5d,my_language,my_license,my_rights_holder
182,,Planorbidae,Ancylus striatus,Ancylus,striatus,,"Quoy & Gaimard, 1834",2020-02-07T00:00:00Z,alive,40,,,estimate,27.9822444915771,-15.7479305267334,Barranco del Pino Gordo,,La Aldea de San Nicolás,Gran Canaria,Canary Islands,Spain,ES,Ward Langeraert,HumanObservation,N,,Ward Langeraert,Ward Langeraert,,sp.,animalia,checklist_snails_spain:taxon:ac62bb8aea0603fac8f33379896c6f81,my_language,my_license,my_rights_holder
183,,Geomitridae,Monilearia persimilis,Monilearia,persimilis,,"(Shuttleworth, 1852)",2020-02-07T00:00:00Z,empty shell,2,,,exact,27.98180199,-15.74763775,Barranco del Pino Gordo,,La Aldea de San Nicolás,Gran Canaria,Canary Islands,Spain,ES,Ward Langeraert,HumanObservation,N,,Ward Langeraert,Ward Langeraert,difference M. praeposita?,sp.,animalia,checklist_snails_spain:taxon:47b55bbc28abb9e45b2979b33e5e5e9b,my_language,my_license,my_rights_holder
184,,Geomitridae,Monilearia persimilis,Monilearia,persimilis,,"(Shuttleworth, 1852)",2020-02-07T00:00:00Z,empty shell,2,1,1,exact,27.97816658,-15.74850941,Barranco del Pino Gordo (Casas de Pino Gordo),,La Aldea de San Nicolás,Gran Canaria,Canary Islands,Spain,ES,Ward Langeraert,HumanObservation,N,,Ward Langeraert,Ward Langeraert,difference M. praeposita?,sp.,animalia,checklist_snails_spain:taxon:47b55bbc28abb9e45b2979b33e5e5e9b,my_language,my_license,my_rights_holder
185,,Enidae,Napaeus validoi,Napaeus,validoi,,"Ibáñez, Alonso & Martín, 2011",2020-02-07T00:00:00Z,empty shell,1,0,1,exact,27.97840881,-15.74837589,Barranco del Pino Gordo (Casas de Pino Gordo),,La Aldea de San Nicolás,Gran Canaria,Canary Islands,Spain,ES,Ward Langeraert,HumanObservation,Y,28,Ward Langeraert,Ward Langeraert,,sp.,animalia,checklist_snails_spain:taxon:34281a0041a36b0a8eccafcd925ef073,my_language,my_license,my_rights_holder
186,,Pomatiidae,Pomatias aff. laevigatus,Pomatias,aff. laevigatus,,,2020-02-07T00:00:00Z,empty shell,1,,,exact,27.97850037,-15.74841785,Barranco del Pino Gordo (Casas de Pino Gordo),,La Aldea de San Nicolás,Gran Canaria,Canary Islands,Spain,ES,Ward Langeraert,HumanObservation,N,,Ward Langeraert,Ward Langeraert,"smooth surface, same species as on Tenerife?",sp.,animalia,checklist_snails_spain:taxon:7bc66aaca388e61360978970b3028266,my_language,my_license,my_rights_holder
187,,Trissexodontidae,Caracollina lenticula,Caracollina,lenticula,,"(Michaud, 1831)",2020-02-07T00:00:00Z,empty shell,1,0,1,exact,27.97849274,-15.74839211,Barranco del Pino Gordo (Casas de Pino Gordo),,La Aldea de San Nicolás,Gran Canaria,Canary Islands,Spain,ES,Ward Langeraert,HumanObservation,N,,Ward Langeraert,Ward Langeraert,,sp.,animalia,checklist_snails_spain:taxon:47273d8d7c32619368d1ace036f6d5e0,my_language,my_license,my_rights_holder
188,,Geomitridae,Monilearia arguineguinensis,Monilearia,arguineguinensis,,"(Seddon & Aparicio, 1998)",2020-02-08T00:00:00Z,empty shell,36,16,20,exact,27.772892,-15.67826843,Barranquillo de Pino Seco (N of Cornisa del Suroeste),,Mogán,Gran Canaria,Canary Islands,Spain,ES,Ward Langeraert,HumanObservation,Y,29,Ward Langeraert,Ward Langeraert,,sp.,animalia,checklist_snails_spain:taxon:f791afb6131def6605168448d8f315f4,my_language,my_license,my_rights_holder
189,,Helicidae,Hemicycla saponacea,Hemicycla,saponacea,,"(R.T. Lowe, 1861)",2020-02-08T00:00:00Z,empty shell,17,3,14,exact,27.772892,-15.67826939,Barranquillo de Pino Seco (N of Cornisa del Suroeste),,Mogán,Gran Canaria,Canary Islands,Spain,ES,Ward Langeraert,HumanObservation,Y,29,Ward Langeraert,Ward Langeraert,,sp.,animalia,checklist_snails_spain:taxon:8719a9f4488198a9acc0ab227ca31830,my_language,my_license,my_rights_holder
190,,Trissexodontidae,Caracollina lenticula,Caracollina,lenticula,,"(Michaud, 1831)",2020-02-08T00:00:00Z,empty shell,20,,,estimate,27.773021697998,-15.6783113479614,Barranquillo de Pino Seco (N of Cornisa del Suroeste),,Mogán,Gran Canaria,Canary Islands,Spain,ES,Ward Langeraert,HumanObservation,N,,Ward Langeraert,Ward Langeraert,,sp.,animalia,checklist_snails_spain:taxon:47273d8d7c32619368d1ace036f6d5e0,my_language,my_license,my_rights_holder
191,,Helicidae,Hemicycla psathyra psathyra,Hemicycla,psathyra,psathyra,"(R.T. Lowe, 1861)",2020-02-08T00:00:00Z,empty shell,4,0,4,exact,27.77305031,-15.67839622,Barranquillo de Pino Seco (N of Cornisa del Suroeste),,Mogán,Gran Canaria,Canary Islands,Spain,ES,Ward Langeraert,HumanObservation,Y,29,Ward Langeraert,Ward Langeraert,,infrasp.,animalia,checklist_snails_spain:taxon:296437d6cc42080932a23d5fe86dc489,my_language,my_license,my_rights_holder
